{
"type": "FeatureCollection",
"name": "UHE",
"crs": { "type": "name", "properties": { "name": "urn:ogc:def:crs:EPSG::4674" } },
"features": [
{ "type": "Feature", "properties": { "NOME": "Balbina", "propriet": "100% para CENTRAIS ELÉTRICAS DO NORTE DO BRASIL S/A (SP)", "RIO": "Rio Uatumã", "potencia": 249800.0, "ini_oper": "1989-02-20T00:00:00", "ceg": "UHE.PH.AM.000190-2.01", "created_us": "BERNARDO.OLIVEIRA", "created_da": "2024-12-13T00:00:00", "last_edite": "BERNARDO.OLIVEIRA", "last_edi_1": "2024-12-13T00:00:00" }, "geometry": { "type": "Point", "coordinates": [ -59.473372009999935, -1.91590046999994 ] } },
{ "type": "Feature", "properties": { "NOME": "Coaracy Nunes", "propriet": "100% para CENTRAIS ELÉTRICAS DO NORTE DO BRASIL S/A (PIE)", "RIO": "Rio Araguari", "potencia": 78000.0, "ini_oper": "1975-12-30T00:00:00", "ceg": "UHE.PH.AP.000783-8.01", "created_us": "BERNARDO.OLIVEIRA", "created_da": "2024-12-13T00:00:00", "last_edite": "BERNARDO.OLIVEIRA", "last_edi_1": "2024-12-13T00:00:00" }, "geometry": { "type": "Point", "coordinates": [ -51.259852, 0.903221 ] } },
{ "type": "Feature", "properties": { "NOME": "Santo Antônio do Jari", "propriet": "100% para COMPANHIA ENERGÉTICA DO JARI (PIE)", "RIO": "Rio Jari", "potencia": 393000.0, "ini_oper": "2014-09-17T00:00:00", "ceg": "UHE.PH.AP.026792-9.01", "created_us": "BERNARDO.OLIVEIRA", "created_da": "2024-12-13T00:00:00", "last_edite": "BERNARDO.OLIVEIRA", "last_edi_1": "2024-12-13T00:00:00" }, "geometry": { "type": "Point", "coordinates": [ -52.51666666999995, -0.65 ] } },
{ "type": "Feature", "properties": { "NOME": "Ferreira Gomes", "propriet": "100% para Ferreira Gomes Energia S.A. (PIE)", "RIO": "Rio Araguari", "potencia": 252000.0, "ini_oper": "2014-11-04T00:00:00", "ceg": "UHE.PH.AP.030385-2.01", "created_us": "BERNARDO.OLIVEIRA", "created_da": "2024-12-13T00:00:00", "last_edite": "BERNARDO.OLIVEIRA", "last_edi_1": "2024-12-13T00:00:00" }, "geometry": { "type": "Point", "coordinates": [ -51.196833329999947, 0.855655560000059 ] } },
{ "type": "Feature", "properties": { "NOME": "Cachoeira Caldeirão", "propriet": "100% para Empresa de Energia Cachoeira Caldeirão S.A. (PIE)", "RIO": "Rio Araguari", "potencia": 219000.0, "ini_oper": "2016-05-05T00:00:00", "ceg": "UHE.PH.AP.031186-3.01", "created_us": "BERNARDO.OLIVEIRA", "created_da": "2024-12-13T00:00:00", "last_edite": "BERNARDO.OLIVEIRA", "last_edi_1": "2024-12-13T00:00:00" }, "geometry": { "type": "Point", "coordinates": [ -51.296666669999979, 0.852777780000054 ] } },
{ "type": "Feature", "properties": { "NOME": "Itapebi", "propriet": "100% para ITAPEBI GERAÇÃO DE ENERGIA SA (PIE)", "RIO": "Rio Jequitinhonha", "potencia": 462000.0, "ini_oper": "2003-02-18T00:00:00", "ceg": "UHE.PH.BA.001175-4.01", "created_us": "BERNARDO.OLIVEIRA", "created_da": "2024-12-13T00:00:00", "last_edite": "BERNARDO.OLIVEIRA", "last_edi_1": "2024-12-13T00:00:00" }, "geometry": { "type": "Point", "coordinates": [ -39.592639389999931, -15.965643049999926 ] } },
{ "type": "Feature", "properties": { "NOME": "Sobradinho", "propriet": "100% para Companhia Hidro Elétrica do São Francisco (PIE)", "RIO": "Rio São Francisco", "potencia": 1050000.0, "ini_oper": "1982-03-03T00:00:00", "ceg": "UHE.PH.BA.002755-3.01", "created_us": "BERNARDO.OLIVEIRA", "created_da": "2024-12-13T00:00:00", "last_edite": "BERNARDO.OLIVEIRA", "last_edi_1": "2024-12-13T00:00:00" }, "geometry": { "type": "Point", "coordinates": [ -40.827199159999964, -9.430238409999959 ] } },
{ "type": "Feature", "properties": { "NOME": "Funil", "propriet": "100% para Companhia Hidro Elétrica do São Francisco (PIE)", "RIO": "Rio das Contas", "potencia": 30000.0, "ini_oper": "1970-02-13T00:00:00", "ceg": "UHE.PH.BA.027046-6.01", "created_us": "BERNARDO.OLIVEIRA", "created_da": "2024-12-13T00:00:00", "last_edite": "BERNARDO.OLIVEIRA", "last_edi_1": "2024-12-13T00:00:00" }, "geometry": { "type": "Point", "coordinates": [ -39.462046849999979, -14.229055839999944 ] } },
{ "type": "Feature", "properties": { "NOME": "Pedra do Cavalo", "propriet": "100% para VOTORANTIM CIMENTOS N/NE S/A (PIE)", "RIO": "Rio Paraguaçu", "potencia": 160000.0, "ini_oper": "2004-12-16T00:00:00", "ceg": "UHE.PH.BA.028565-0.01", "created_us": "BERNARDO.OLIVEIRA", "created_da": "2024-12-13T00:00:00", "last_edite": "BERNARDO.OLIVEIRA", "last_edi_1": "2024-12-13T00:00:00" }, "geometry": { "type": "Point", "coordinates": [ -38.998023399999965, -12.58353872999993 ] } },
{ "type": "Feature", "properties": { "NOME": "Rosal", "propriet": "100% para Rosal Energia S.A. (SP)", "RIO": "Rio Itabapoana", "potencia": 55000.0, "ini_oper": "2000-01-18T00:00:00", "ceg": "UHE.PH.ES.002553-4.01", "created_us": "BERNARDO.OLIVEIRA", "created_da": "2024-12-13T00:00:00", "last_edite": "BERNARDO.OLIVEIRA", "last_edi_1": "2024-12-13T00:00:00" }, "geometry": { "type": "Point", "coordinates": [ -41.721923649999951, -20.91713545999994 ] } },
{ "type": "Feature", "properties": { "NOME": "Suíça", "propriet": "100% para Statkraft Energias Renováveis S.A. (PIE)", "RIO": "Rio Santa Maria", "potencia": 35337.0, "ini_oper": "1965-01-01T00:00:00", "ceg": "UHE.PH.ES.002781-2.01", "created_us": "BERNARDO.OLIVEIRA", "created_da": "2024-12-13T00:00:00", "last_edite": "BERNARDO.OLIVEIRA", "last_edi_1": "2024-12-13T00:00:00" }, "geometry": { "type": "Point", "coordinates": [ -40.577011579999976, -20.083151329999964 ] } },
{ "type": "Feature", "properties": { "NOME": "Cachoeira Dourada", "propriet": "100% para ENEL GREEN POWER CACHOEIRA DOURADA S.A (SP)", "RIO": "Rio Paranaíba", "potencia": 658000.0, "ini_oper": "1959-01-01T00:00:00", "ceg": "UHE.PH.GO.000528-2.01", "created_us": "BERNARDO.OLIVEIRA", "created_da": "2024-12-13T00:00:00", "last_edite": "BERNARDO.OLIVEIRA", "last_edi_1": "2024-12-13T00:00:00" }, "geometry": { "type": "Point", "coordinates": [ -49.490219679999939, -18.504327429999933 ] } },
{ "type": "Feature", "properties": { "NOME": "Cana Brava", "propriet": "100% para ENGIE Brasil Energia S.A. (PIE)", "RIO": "Rio Maranhão ou Tocantins", "potencia": 450000.0, "ini_oper": "2002-05-22T00:00:00", "ceg": "UHE.PH.GO.000630-0.01", "created_us": "BERNARDO.OLIVEIRA", "created_da": "2024-12-13T00:00:00", "last_edite": "BERNARDO.OLIVEIRA", "last_edi_1": "2024-12-13T00:00:00" }, "geometry": { "type": "Point", "coordinates": [ -48.143329309999956, -13.402387139999973 ] } },
{ "type": "Feature", "properties": { "NOME": "Corumbá I", "propriet": "100% para Furnas-Centrais Elétricas S.A. (PIE)", "RIO": "Rio Corumbá", "potencia": 375000.0, "ini_oper": "1996-10-31T00:00:00", "ceg": "UHE.PH.GO.000866-4.01", "created_us": "BERNARDO.OLIVEIRA", "created_da": "2024-12-13T00:00:00", "last_edite": "BERNARDO.OLIVEIRA", "last_edi_1": "2024-12-13T00:00:00" }, "geometry": { "type": "Point", "coordinates": [ -48.532318479999958, -17.987860249999926 ] } },
{ "type": "Feature", "properties": { "NOME": "Espora", "propriet": "100% para ESPORA ENERGÉTICA S.A (PIE)", "RIO": "Rio Corrente", "potencia": 32000.0, "ini_oper": "2006-09-07T00:00:00", "ceg": "UHE.PH.GO.000908-3.01", "created_us": "BERNARDO.OLIVEIRA", "created_da": "2024-12-13T00:00:00", "last_edite": "BERNARDO.OLIVEIRA", "last_edi_1": "2024-12-13T00:00:00" }, "geometry": { "type": "Point", "coordinates": [ -51.865555559999962, -18.675833329999932 ] } },
{ "type": "Feature", "properties": { "NOME": "São Simão", "propriet": "100% para UHE São Simão Energia S.A. (SP)", "RIO": "Rio Paranaíba", "potencia": 1710000.0, "ini_oper": "1978-01-01T00:00:00", "ceg": "UHE.PH.GO.002704-9.01", "created_us": "BERNARDO.OLIVEIRA", "created_da": "2024-12-13T00:00:00", "last_edite": "BERNARDO.OLIVEIRA", "last_edi_1": "2024-12-13T00:00:00" }, "geometry": { "type": "Point", "coordinates": [ -50.498611109999956, -19.018333329999962 ] } },
{ "type": "Feature", "properties": { "NOME": "Serra da Mesa", "propriet": "100% para Furnas-Centrais Elétricas S.A. (SP)", "RIO": "Rio Tocantins", "potencia": 1275000.0, "ini_oper": "1998-04-30T00:00:00", "ceg": "UHE.PH.GO.002731-6.01", "created_us": "BERNARDO.OLIVEIRA", "created_da": "2024-12-13T00:00:00", "last_edite": "BERNARDO.OLIVEIRA", "last_edi_1": "2024-12-13T00:00:00" }, "geometry": { "type": "Point", "coordinates": [ -48.304857609999942, -13.833863619999931 ] } },
{ "type": "Feature", "properties": { "NOME": "Corumbá IV", "propriet": "100% para Corumbá Concessões S.A. (PIE)", "RIO": "Rio Corumbá", "potencia": 127000.0, "ini_oper": "2006-04-01T00:00:00", "ceg": "UHE.PH.GO.027795-9.01", "created_us": "BERNARDO.OLIVEIRA", "created_da": "2024-12-13T00:00:00", "last_edite": "BERNARDO.OLIVEIRA", "last_edi_1": "2024-12-13T00:00:00" }, "geometry": { "type": "Point", "coordinates": [ -48.187481669999954, -16.322734479999951 ] } },
{ "type": "Feature", "properties": { "NOME": "Corumbá III", "propriet": "60% para GERAÇÃO CIII S/A (PIE) 40% para ENERGÉTICA CORUMBÁ III S.A. (PIE)", "RIO": "Rio Corumbá", "potencia": 96400.0, "ini_oper": "2009-10-24T00:00:00", "ceg": "UHE.PH.GO.028352-5.01", "created_us": "BERNARDO.OLIVEIRA", "created_da": "2024-12-13T00:00:00", "last_edite": "BERNARDO.OLIVEIRA", "last_edi_1": "2024-12-13T00:00:00" }, "geometry": { "type": "Point", "coordinates": [ -47.934619489999932, -16.788200509999967 ] } },
{ "type": "Feature", "properties": { "NOME": "Serra do Facão", "propriet": "100% para Serra do Facão Energia S.A. (PIE)", "RIO": "Rio São Marcos", "potencia": 212600.0, "ini_oper": "2010-07-13T00:00:00", "ceg": "UHE.PH.GO.028355-0.01", "created_us": "BERNARDO.OLIVEIRA", "created_da": "2024-12-13T00:00:00", "last_edite": "BERNARDO.OLIVEIRA", "last_edi_1": "2024-12-13T00:00:00" }, "geometry": { "type": "Point", "coordinates": [ -47.67489041999994, -18.045975209999938 ] } },
{ "type": "Feature", "properties": { "NOME": "Caçu", "propriet": "100% para KINROSS BRASIL MINERAÇÃO S/A (PIE)", "RIO": "Rio Claro", "potencia": 65000.0, "ini_oper": "2010-07-24T00:00:00", "ceg": "UHE.PH.GO.028756-3.01", "created_us": "BERNARDO.OLIVEIRA", "created_da": "2024-12-13T00:00:00", "last_edite": "BERNARDO.OLIVEIRA", "last_edi_1": "2024-12-13T00:00:00" }, "geometry": { "type": "Point", "coordinates": [ -51.147777779999956, -18.530555559999982 ] } },
{ "type": "Feature", "properties": { "NOME": "Barra dos Coqueiros", "propriet": "100% para KINROSS BRASIL MINERAÇÃO S/A (PIE)", "RIO": "Rio Claro", "potencia": 90000.0, "ini_oper": "2010-06-19T00:00:00", "ceg": "UHE.PH.GO.028757-1.01", "created_us": "BERNARDO.OLIVEIRA", "created_da": "2024-12-13T00:00:00", "last_edite": "BERNARDO.OLIVEIRA", "last_edi_1": "2024-12-13T00:00:00" }, "geometry": { "type": "Point", "coordinates": [ -51.002799289999984, -18.721725879999951 ] } },
{ "type": "Feature", "properties": { "NOME": "Salto", "propriet": "100% para Rio Verde Energia S.A. (PIE)", "RIO": "Rio Verde", "potencia": 116000.0, "ini_oper": "2010-05-25T00:00:00", "ceg": "UHE.PH.GO.028758-0.01", "created_us": "BERNARDO.OLIVEIRA", "created_da": "2024-12-13T00:00:00", "last_edite": "BERNARDO.OLIVEIRA", "last_edi_1": "2024-12-13T00:00:00" }, "geometry": { "type": "Point", "coordinates": [ -51.170986329999948, -18.808181049999973 ] } },
{ "type": "Feature", "properties": { "NOME": "Estreito", "propriet": "40.0700% para COMPANHIA ENERGÉTICA ESTREITO (PIE) 30% para VALE S.A. (PIE) 25.4900% para Estreito Energia S.A. (PIE) 4.4400% para ESTREITO PARTICIPACOES S.A. (PIE)", "RIO": "Rio Tocantins", "potencia": 1087000.0, "ini_oper": "2011-04-29T00:00:00", "ceg": "UHE.PH.MA.028863-2.01", "created_us": "BERNARDO.OLIVEIRA", "created_da": "2024-12-13T00:00:00", "last_edite": "BERNARDO.OLIVEIRA", "last_edi_1": "2024-12-13T00:00:00" }, "geometry": { "type": "Point", "coordinates": [ -47.466480029999957, -6.589097409999965 ] } },
{ "type": "Feature", "properties": { "NOME": "Água Vermelha (Antiga José Ermírio de Moraes)", "propriet": "100% para AES Brasil Operações S.A. (PIE)", "RIO": "Rio Grande", "potencia": 1396200.0, "ini_oper": "1978-08-22T00:00:00", "ceg": "UHE.PH.MG.000041-8.01", "created_us": "BERNARDO.OLIVEIRA", "created_da": "2024-12-13T00:00:00", "last_edite": "BERNARDO.OLIVEIRA", "last_edi_1": "2024-12-13T00:00:00" }, "geometry": { "type": "Point", "coordinates": [ -50.346478039999965, -19.86315701999996 ] } },
{ "type": "Feature", "properties": { "NOME": "Aimorés", "propriet": "100% para Aliança Geração de Energia S.A. (PIE)", "RIO": "Rio Doce", "potencia": 330000.0, "ini_oper": "2005-07-30T00:00:00", "ceg": "UHE.PH.MG.000042-6.01", "created_us": "BERNARDO.OLIVEIRA", "created_da": "2024-12-13T00:00:00", "last_edite": "BERNARDO.OLIVEIRA", "last_edi_1": "2024-12-13T00:00:00" }, "geometry": { "type": "Point", "coordinates": [ -41.097979719999955, -19.457141109999952 ] } },
{ "type": "Feature", "properties": { "NOME": "Camargos", "propriet": "100% para CEMIG Geração Camargos S.A. (SP)", "RIO": "Rio Grande", "potencia": 46000.0, "ini_oper": "1960-01-01T00:00:00", "ceg": "UHE.PH.MG.000608-4.01", "created_us": "BERNARDO.OLIVEIRA", "created_da": "2024-12-13T00:00:00", "last_edite": "BERNARDO.OLIVEIRA", "last_edi_1": "2024-12-13T00:00:00" }, "geometry": { "type": "Point", "coordinates": [ -44.615883579999945, -21.325347529999931 ] } },
{ "type": "Feature", "properties": { "NOME": "Funil", "propriet": "100% para Aliança Geração de Energia S.A. (PIE)", "RIO": "Rio Grande", "potencia": 180000.0, "ini_oper": "2002-12-30T00:00:00", "ceg": "UHE.PH.MG.001006-5.01", "created_us": "BERNARDO.OLIVEIRA", "created_da": "2024-12-13T00:00:00", "last_edite": "BERNARDO.OLIVEIRA", "last_edi_1": "2024-12-13T00:00:00" }, "geometry": { "type": "Point", "coordinates": [ -45.036144049999962, -21.142942059999939 ] } },
{ "type": "Feature", "properties": { "NOME": "Furnas", "propriet": "100% para Furnas-Centrais Elétricas S.A. (PIE)", "RIO": "Rio Grande", "potencia": 1312000.0, "ini_oper": "1963-09-04T00:00:00", "ceg": "UHE.PH.MG.001007-3.01", "created_us": "BERNARDO.OLIVEIRA", "created_da": "2024-12-13T00:00:00", "last_edite": "BERNARDO.OLIVEIRA", "last_edi_1": "2024-12-13T00:00:00" }, "geometry": { "type": "Point", "coordinates": [ -46.318253819999939, -20.669203449999941 ] } },
{ "type": "Feature", "properties": { "NOME": "Guilman Amorim", "propriet": "51% para ARCELORMITTAL BRASIL S.A. (PIE) 49% para SAMARCO MINERAÇÃO S.A. (PIE)", "RIO": "Rio Piracicaba", "potencia": 140000.0, "ini_oper": "1997-11-02T00:00:00", "ceg": "UHE.PH.MG.001079-0.01", "created_us": "BERNARDO.OLIVEIRA", "created_da": "2024-12-13T00:00:00", "last_edite": "BERNARDO.OLIVEIRA", "last_edi_1": "2024-12-13T00:00:00" }, "geometry": { "type": "Point", "coordinates": [ -42.96, -19.708333329999959 ] } },
{ "type": "Feature", "properties": { "NOME": "Irapé", "propriet": "100% para CEMIG Geração e Transmissão S.A. (PIE)", "RIO": "Rio Jequitinhonha", "potencia": 399000.0, "ini_oper": "2006-07-20T00:00:00", "ceg": "UHE.PH.MG.001146-0.01", "created_us": "BERNARDO.OLIVEIRA", "created_da": "2024-12-13T00:00:00", "last_edite": "BERNARDO.OLIVEIRA", "last_edi_1": "2024-12-13T00:00:00" }, "geometry": { "type": "Point", "coordinates": [ -42.574722219999956, -16.738055559999964 ] } },
{ "type": "Feature", "properties": { "NOME": "Itumbiara", "propriet": "100% para Furnas-Centrais Elétricas S.A. (PIE)", "RIO": "Rio Paranaíba", "potencia": 2082000.0, "ini_oper": "1980-04-24T00:00:00", "ceg": "UHE.PH.MG.001194-0.01", "created_us": "BERNARDO.OLIVEIRA", "created_da": "2024-12-13T00:00:00", "last_edite": "BERNARDO.OLIVEIRA", "last_edi_1": "2024-12-13T00:00:00" }, "geometry": { "type": "Point", "coordinates": [ -49.118333329999984, -18.423611109999968 ] } },
{ "type": "Feature", "properties": { "NOME": "Itutinga", "propriet": "100% para CEMIG Geração Itutinga S.A. (SP)", "RIO": "Rio Grande", "potencia": 52000.0, "ini_oper": "1955-01-01T00:00:00", "ceg": "UHE.PH.MG.001197-5.01", "created_us": "BERNARDO.OLIVEIRA", "created_da": "2024-12-13T00:00:00", "last_edite": "BERNARDO.OLIVEIRA", "last_edi_1": "2024-12-13T00:00:00" }, "geometry": { "type": "Point", "coordinates": [ -44.625333329999933, -21.292111109999951 ] } },
{ "type": "Feature", "properties": { "NOME": "Marimbondo", "propriet": "100% para Furnas-Centrais Elétricas S.A. (PIE)", "RIO": "Rio Grande", "potencia": 1488000.0, "ini_oper": "1975-10-25T00:00:00", "ceg": "UHE.PH.MG.001417-6.01", "created_us": "BERNARDO.OLIVEIRA", "created_da": "2024-12-13T00:00:00", "last_edite": "BERNARDO.OLIVEIRA", "last_edi_1": "2024-12-13T00:00:00" }, "geometry": { "type": "Point", "coordinates": [ -49.197678269999983, -20.302955079999947 ] } },
{ "type": "Feature", "properties": { "NOME": "Miranda", "propriet": "100% para COMPANHIA ENERGÉTICA MIRANDA (SP)", "RIO": "Rio Araguari", "potencia": 408000.0, "ini_oper": "1998-05-30T00:00:00", "ceg": "UHE.PH.MG.001469-9.01", "created_us": "BERNARDO.OLIVEIRA", "created_da": "2024-12-13T00:00:00", "last_edite": "BERNARDO.OLIVEIRA", "last_edi_1": "2024-12-13T00:00:00" }, "geometry": { "type": "Point", "coordinates": [ -48.040907339999933, -18.910407769999949 ] } },
{ "type": "Feature", "properties": { "NOME": "Nova Ponte", "propriet": "100% para CEMIG Geração e Transmissão S.A. (SP)", "RIO": "Rio Araguari", "potencia": 510000.0, "ini_oper": "1994-01-01T00:00:00", "ceg": "UHE.PH.MG.001574-1.01", "created_us": "BERNARDO.OLIVEIRA", "created_da": "2024-12-13T00:00:00", "last_edite": "BERNARDO.OLIVEIRA", "last_edi_1": "2024-12-13T00:00:00" }, "geometry": { "type": "Point", "coordinates": [ -47.69696603999995, -19.129581989999963 ] } },
{ "type": "Feature", "properties": { "NOME": "Marechal Mascarenhas de Moraes (Antiga Peixoto)", "propriet": "100% para Furnas-Centrais Elétricas S.A. (PIE)", "RIO": "Rio Grande", "potencia": 478000.0, "ini_oper": "1957-04-01T00:00:00", "ceg": "UHE.PH.MG.002038-9.01", "created_us": "BERNARDO.OLIVEIRA", "created_da": "2024-12-13T00:00:00", "last_edite": "BERNARDO.OLIVEIRA", "last_edi_1": "2024-12-13T00:00:00" }, "geometry": { "type": "Point", "coordinates": [ -47.064385889999983, -20.286261089999982 ] } },
{ "type": "Feature", "properties": { "NOME": "Picada", "propriet": "100% para L.D.Q.S.P.E. GERAÇÃO DE ENERGIA E PARTICIPAÇÕES LTDA. (APE)", "RIO": "Rio do Peixe", "potencia": 50000.0, "ini_oper": "2006-07-01T00:00:00", "ceg": "UHE.PH.MG.002053-2.01", "created_us": "BERNARDO.OLIVEIRA", "created_da": "2024-12-13T00:00:00", "last_edite": "BERNARDO.OLIVEIRA", "last_edi_1": "2024-12-13T00:00:00" }, "geometry": { "type": "Point", "coordinates": [ -43.54083610999993, -21.884858329999929 ] } },
{ "type": "Feature", "properties": { "NOME": "Porto Colômbia", "propriet": "100% para Furnas-Centrais Elétricas S.A. (PIE)", "RIO": "Rio Grande", "potencia": 328000.0, "ini_oper": "1973-06-29T00:00:00", "ceg": "UHE.PH.MG.002117-2.01", "created_us": "BERNARDO.OLIVEIRA", "created_da": "2024-12-13T00:00:00", "last_edite": "BERNARDO.OLIVEIRA", "last_edi_1": "2024-12-13T00:00:00" }, "geometry": { "type": "Point", "coordinates": [ -48.571944, -20.124167 ] } },
{ "type": "Feature", "properties": { "NOME": "Queimado", "propriet": "82.5000% para CEMIG Geração e Transmissão S.A. (PIE) 17.5000% para CEB Participações S.A (PIE)", "RIO": "Rio Preto", "potencia": 105000.0, "ini_oper": "2004-06-16T00:00:00", "ceg": "UHE.PH.MG.002176-8.01", "created_us": "BERNARDO.OLIVEIRA", "created_da": "2024-12-13T00:00:00", "last_edite": "BERNARDO.OLIVEIRA", "last_edi_1": "2024-12-13T00:00:00" }, "geometry": { "type": "Point", "coordinates": [ -47.323332289999939, -16.210721069999977 ] } },
{ "type": "Feature", "properties": { "NOME": "Sá Carvalho", "propriet": "100% para SÁ Carvalho S.A. (SP)", "RIO": "Rio Piracicaba", "potencia": 78000.0, "ini_oper": "1951-01-01T00:00:00", "ceg": "UHE.PH.MG.002563-1.01", "created_us": "BERNARDO.OLIVEIRA", "created_da": "2024-12-13T00:00:00", "last_edite": "BERNARDO.OLIVEIRA", "last_edi_1": "2024-12-13T00:00:00" }, "geometry": { "type": "Point", "coordinates": [ -42.850181569999961, -19.64622124999994 ] } },
{ "type": "Feature", "properties": { "NOME": "Santa Clara", "propriet": "100% para COMPANHIA ENERGÉTICA SANTA CLARA (PIE)", "RIO": "Rio Mucuri", "potencia": 60000.0, "ini_oper": "2002-02-20T00:00:00", "ceg": "UHE.PH.MG.002699-9.01", "created_us": "BERNARDO.OLIVEIRA", "created_da": "2024-12-13T00:00:00", "last_edite": "BERNARDO.OLIVEIRA", "last_edi_1": "2024-12-13T00:00:00" }, "geometry": { "type": "Point", "coordinates": [ -40.201823709999985, -17.896153339999955 ] } },
{ "type": "Feature", "properties": { "NOME": "Sobragi", "propriet": "100% para Companhia Brasileira de Alumínio (PIE)", "RIO": "Rio Paraibuna", "potencia": 60000.0, "ini_oper": "1998-07-01T00:00:00", "ceg": "UHE.PH.MG.002757-0.01", "created_us": "BERNARDO.OLIVEIRA", "created_da": "2024-12-13T00:00:00", "last_edite": "BERNARDO.OLIVEIRA", "last_edi_1": "2024-12-13T00:00:00" }, "geometry": { "type": "Point", "coordinates": [ -43.363076579999984, -21.979254399999945 ] } },
{ "type": "Feature", "properties": { "NOME": "Três Marias", "propriet": "100% para CEMIG Geração Três Marias S.A. (SP)", "RIO": "Rio São Francisco", "potencia": 396000.0, "ini_oper": "1962-01-01T00:00:00", "ceg": "UHE.PH.MG.027113-6.01", "created_us": "BERNARDO.OLIVEIRA", "created_da": "2024-12-13T00:00:00", "last_edite": "BERNARDO.OLIVEIRA", "last_edi_1": "2024-12-13T00:00:00" }, "geometry": { "type": "Point", "coordinates": [ -45.259166659999948, -18.215 ] } },
{ "type": "Feature", "properties": { "NOME": "Emborcação", "propriet": "100% para CEMIG Geração e Transmissão S.A. (SP)", "RIO": "Rio Paranaíba", "potencia": 1192000.0, "ini_oper": "1982-08-02T00:00:00", "ceg": "UHE.PH.MG.027115-2.01", "created_us": "BERNARDO.OLIVEIRA", "created_da": "2024-12-13T00:00:00", "last_edite": "BERNARDO.OLIVEIRA", "last_edi_1": "2024-12-13T00:00:00" }, "geometry": { "type": "Point", "coordinates": [ -47.984777709999946, -18.452349339999955 ] } },
{ "type": "Feature", "properties": { "NOME": "Porto Estrela", "propriet": "66.6667% para Aliança Geração de Energia S.A. (PIE) 33.3333% para COTEMINAS S.A. (APE)", "RIO": "Rio Santo Antônio", "potencia": 112000.0, "ini_oper": "2001-09-04T00:00:00", "ceg": "UHE.PH.MG.027196-9.01", "created_us": "BERNARDO.OLIVEIRA", "created_da": "2024-12-13T00:00:00", "last_edite": "BERNARDO.OLIVEIRA", "last_edi_1": "2024-12-13T00:00:00" }, "geometry": { "type": "Point", "coordinates": [ -42.662517279999975, -19.115905569999939 ] } },
{ "type": "Feature", "properties": { "NOME": "Salto Grande", "propriet": "100% para CEMIG Geração Salto Grande S.A. (SP)", "RIO": "Rio Santo Antônio", "potencia": 102000.0, "ini_oper": "1956-01-01T00:00:00", "ceg": "UHE.PH.MG.027210-8.01", "created_us": "BERNARDO.OLIVEIRA", "created_da": "2024-12-13T00:00:00", "last_edite": "BERNARDO.OLIVEIRA", "last_edi_1": "2024-12-13T00:00:00" }, "geometry": { "type": "Point", "coordinates": [ -42.775040279999985, -19.165277759999981 ] } },
{ "type": "Feature", "properties": { "NOME": "Baguari", "propriet": "51% para Baguari I Geração de Energia Elétrica S.A. (PIE) 34% para CEMIG BAGUARI ENERGIA S.A (PIE) 15% para Furnas-Centrais Elétricas S.A. (PIE)", "RIO": "Rio Doce", "potencia": 140000.0, "ini_oper": "2009-09-09T00:00:00", "ceg": "UHE.PH.MG.029453-5.01", "created_us": "BERNARDO.OLIVEIRA", "created_da": "2024-12-13T00:00:00", "last_edite": "BERNARDO.OLIVEIRA", "last_edi_1": "2024-12-13T00:00:00" }, "geometry": { "type": "Point", "coordinates": [ -42.124895619999961, -19.021568719999948 ] } },
{ "type": "Feature", "properties": { "NOME": "Batalha (Antiga Paulista)", "propriet": "100% para Furnas-Centrais Elétricas S.A. (PIE)", "RIO": "Rio São Marcos", "potencia": 52500.0, "ini_oper": "2014-05-17T00:00:00", "ceg": "UHE.PH.MG.029454-3.01", "created_us": "BERNARDO.OLIVEIRA", "created_da": "2024-12-13T00:00:00", "last_edite": "BERNARDO.OLIVEIRA", "last_edi_1": "2024-12-13T00:00:00" }, "geometry": { "type": "Point", "coordinates": [ -47.489444439999943, -17.34555555999998 ] } },
{ "type": "Feature", "properties": { "NOME": "Retiro Baixo", "propriet": "100% para RETIRO BAIXO ENERGÉTICA S.A. (PIE)", "RIO": "Rio Paraopeba", "potencia": 83700.0, "ini_oper": "2010-03-03T00:00:00", "ceg": "UHE.PH.MG.029457-8.01", "created_us": "BERNARDO.OLIVEIRA", "created_da": "2024-12-13T00:00:00", "last_edite": "BERNARDO.OLIVEIRA", "last_edi_1": "2024-12-13T00:00:00" }, "geometry": { "type": "Point", "coordinates": [ -44.776130739999985, -18.879411619999928 ] } },
{ "type": "Feature", "properties": { "NOME": "Simplício", "propriet": "100% para Furnas-Centrais Elétricas S.A. (PIE)", "RIO": "Rio Paraíba do Sul", "potencia": 333700.0, "ini_oper": "2013-06-05T00:00:00", "ceg": "UHE.PH.MG.029458-6.01", "created_us": "BERNARDO.OLIVEIRA", "created_da": "2024-12-13T00:00:00", "last_edite": "BERNARDO.OLIVEIRA", "last_edi_1": "2024-12-13T00:00:00" }, "geometry": { "type": "Point", "coordinates": [ -42.793148379999934, -21.920743709999954 ] } },
{ "type": "Feature", "properties": { "NOME": "Guaporé", "propriet": "64% para Tangará Energia S.A. (PIE) 36% para Mineração Santa Elina Indústria e Comércio S.A (PIE)", "RIO": "Rio Guaporé", "potencia": 120000.0, "ini_oper": "2003-04-08T00:00:00", "ceg": "UHE.PH.MT.001066-9.01", "created_us": "BERNARDO.OLIVEIRA", "created_da": "2024-12-13T00:00:00", "last_edite": "BERNARDO.OLIVEIRA", "last_edi_1": "2024-12-13T00:00:00" }, "geometry": { "type": "Point", "coordinates": [ -58.964722, -15.123889 ] } },
{ "type": "Feature", "properties": { "NOME": "Jauru", "propriet": "90% para Ibitu Energética S.A. (PIE) 10% para Cinco Estrelas Agropecuária e Participações Ltda (APE)", "RIO": "Rio Jauru", "potencia": 118000.0, "ini_oper": "2003-06-06T00:00:00", "ceg": "UHE.PH.MT.001245-9.01", "created_us": "BERNARDO.OLIVEIRA", "created_da": "2024-12-13T00:00:00", "last_edite": "BERNARDO.OLIVEIRA", "last_edi_1": "2024-12-13T00:00:00" }, "geometry": { "type": "Point", "coordinates": [ -58.72777777999994, -15.235555559999966 ] } },
{ "type": "Feature", "properties": { "NOME": "Manso", "propriet": "70% para Furnas-Centrais Elétricas S.A. (SP) 30% para Produtores Energéticos de Manso S.A (PIE)", "RIO": "Rio Manso", "potencia": 210000.0, "ini_oper": "2000-11-29T00:00:00", "ceg": "UHE.PH.MT.001401-0.01", "created_us": "BERNARDO.OLIVEIRA", "created_da": "2024-12-13T00:00:00", "last_edite": "BERNARDO.OLIVEIRA", "last_edi_1": "2024-12-13T00:00:00" }, "geometry": { "type": "Point", "coordinates": [ -55.785276539999984, -14.871175059999928 ] } },
{ "type": "Feature", "properties": { "NOME": "Ponte de Pedra", "propriet": "100% para ENGIE Brasil Energia S.A. (PIE)", "RIO": "Rio Correntes", "potencia": 176100.0, "ini_oper": "2005-07-19T00:00:00", "ceg": "UHE.PH.MT.002103-2.01", "created_us": "BERNARDO.OLIVEIRA", "created_da": "2024-12-13T00:00:00", "last_edite": "BERNARDO.OLIVEIRA", "last_edi_1": "2024-12-13T00:00:00" }, "geometry": { "type": "Point", "coordinates": [ -54.827312819999975, -17.60779145999993 ] } },
{ "type": "Feature", "properties": { "NOME": "Itiquira (Casas de Forças  I e  II)", "propriet": "100% para Elera Renováveis S.A. (APE)", "RIO": "Rio Itiquira", "potencia": 157370.0, "ini_oper": "2002-11-06T00:00:00", "ceg": "UHE.PH.MT.027244-2.01", "created_us": "BERNARDO.OLIVEIRA", "created_da": "2024-12-13T00:00:00", "last_edite": "BERNARDO.OLIVEIRA", "last_edi_1": "2024-12-13T00:00:00" }, "geometry": { "type": "Point", "coordinates": [ -54.830736109999975, -17.090647219999937 ] } },
{ "type": "Feature", "properties": { "NOME": "Dardanelos", "propriet": "100% para Energética Águas da Pedra S.A. (PIE)", "RIO": "Rio Aripuanã", "potencia": 261000.0, "ini_oper": "2011-08-09T00:00:00", "ceg": "UHE.PH.MT.029597-3.01", "created_us": "BERNARDO.OLIVEIRA", "created_da": "2024-12-13T00:00:00", "last_edite": "BERNARDO.OLIVEIRA", "last_edi_1": "2024-12-13T00:00:00" }, "geometry": { "type": "Point", "coordinates": [ -59.46416666999994, -10.163333329999944 ] } },
{ "type": "Feature", "properties": { "NOME": "Colíder", "propriet": "100% para Copel Geração E Transmissão S.A. (PIE)", "RIO": "Rio Teles Pires", "potencia": 300000.0, "ini_oper": "2019-03-09T00:00:00", "ceg": "UHE.PH.MT.030422-0.01", "created_us": "BERNARDO.OLIVEIRA", "created_da": "2024-12-13T00:00:00", "last_edite": "BERNARDO.OLIVEIRA", "last_edi_1": "2024-12-13T00:00:00" }, "geometry": { "type": "Point", "coordinates": [ -55.766005, -10.984805279999932 ] } },
{ "type": "Feature", "properties": { "NOME": "Sinop", "propriet": "100% para COMPANHIA ENERGÉTICA SINOP S.A (PIE)", "RIO": "Rio Teles Pires", "potencia": 401900.0, "ini_oper": "2019-09-17T00:00:00", "ceg": "UHE.PH.MT.031428-5.01", "created_us": "BERNARDO.OLIVEIRA", "created_da": "2024-12-13T00:00:00", "last_edite": "BERNARDO.OLIVEIRA", "last_edi_1": "2024-12-13T00:00:00" }, "geometry": { "type": "Point", "coordinates": [ -55.45, -11.26666666999995 ] } },
{ "type": "Feature", "properties": { "NOME": "Tucuruí", "propriet": "100% para CENTRAIS ELÉTRICAS DO NORTE DO BRASIL S/A (PIE)", "RIO": "Rio Tocantins", "potencia": 8535000.0, "ini_oper": "1984-12-30T00:00:00", "ceg": "UHE.PH.PA.002889-4.01", "created_us": "BERNARDO.OLIVEIRA", "created_da": "2024-12-13T00:00:00", "last_edite": "BERNARDO.OLIVEIRA", "last_edi_1": "2024-12-13T00:00:00" }, "geometry": { "type": "Point", "coordinates": [ -49.643120779999947, -3.83159760999996 ] } },
{ "type": "Feature", "properties": { "NOME": "Curuá-Una", "propriet": "100% para CENTRAIS ELÉTRICAS DO NORTE DO BRASIL S/A (PIE)", "RIO": "Rio Curuá-Una", "potencia": 42800.0, "ini_oper": "1977-01-01T00:00:00", "ceg": "UHE.PH.PA.027130-6.01", "created_us": "BERNARDO.OLIVEIRA", "created_da": "2024-12-13T00:00:00", "last_edite": "BERNARDO.OLIVEIRA", "last_edi_1": "2024-12-13T00:00:00" }, "geometry": { "type": "Point", "coordinates": [ -54.299944439999933, -2.818055559999948 ] } },
{ "type": "Feature", "properties": { "NOME": "Belo Monte", "propriet": "100% para NORTE ENERGIA S/A (PIE)", "RIO": "Rio Xingú", "potencia": 11233100.0, "ini_oper": "2016-04-20T00:00:00", "ceg": "UHE.PH.PA.030354-2.01", "created_us": "BERNARDO.OLIVEIRA", "created_da": "2024-12-13T00:00:00", "last_edite": "BERNARDO.OLIVEIRA", "last_edi_1": "2024-12-13T00:00:00" }, "geometry": { "type": "Point", "coordinates": [ -51.775, -3.126389 ] } },
{ "type": "Feature", "properties": { "NOME": "Teles Pires", "propriet": "100% para COMPANHIA HIDRELÉTRICA TELES PIRES (PIE)", "RIO": "Rio Teles Pires", "potencia": 1820000.0, "ini_oper": "2015-11-07T00:00:00", "ceg": "UHE.PH.PA.030557-0.01", "created_us": "BERNARDO.OLIVEIRA", "created_da": "2024-12-13T00:00:00", "last_edite": "BERNARDO.OLIVEIRA", "last_edi_1": "2024-12-13T00:00:00" }, "geometry": { "type": "Point", "coordinates": [ -56.777993609999953, -9.351509439999973 ] } },
{ "type": "Feature", "properties": { "NOME": "São Manoel", "propriet": "100% para Empresa de Energia São Manoel S.A. (PIE)", "RIO": "Rio Teles Pires", "potencia": 700000.0, "ini_oper": "2017-12-28T00:00:00", "ceg": "UHE.PH.PA.031444-7.01", "created_us": "BERNARDO.OLIVEIRA", "created_da": "2024-12-13T00:00:00", "last_edite": "BERNARDO.OLIVEIRA", "last_edi_1": "2024-12-13T00:00:00" }, "geometry": { "type": "Point", "coordinates": [ -57.052227179999932, -9.19027540999997 ] } },
{ "type": "Feature", "properties": { "NOME": "Boa Esperança (Antiga Castelo Branco)", "propriet": "100% para Companhia Hidro Elétrica do São Francisco (PIE)", "RIO": "Rio Parnaíba", "potencia": 237300.0, "ini_oper": "1970-10-02T00:00:00", "ceg": "UHE.PH.PI.000267-4.01", "created_us": "BERNARDO.OLIVEIRA", "created_da": "2024-12-13T00:00:00", "last_edite": "BERNARDO.OLIVEIRA", "last_edi_1": "2024-12-13T00:00:00" }, "geometry": { "type": "Point", "coordinates": [ -43.562673169999982, -6.753495769999972 ] } },
{ "type": "Feature", "properties": { "NOME": "Governador Bento Munhoz da Rocha Netto (Foz do Areia)", "propriet": "100% para F.D.A. GERAÇÃO DE ENERGIA ELÉTRICA S.A. (SP)", "RIO": "Rio Iguaçu", "potencia": 1676000.0, "ini_oper": "1980-10-01T00:00:00", "ceg": "UHE.PH.PR.000984-9.01", "created_us": "BERNARDO.OLIVEIRA", "created_da": "2024-12-13T00:00:00", "last_edite": "BERNARDO.OLIVEIRA", "last_edi_1": "2024-12-13T00:00:00" }, "geometry": { "type": "Point", "coordinates": [ -51.665973029999975, -26.00977230999996 ] } },
{ "type": "Feature", "properties": { "NOME": "Governador Pedro Viriato Parigot de Souza (Capivari/Cachoeira)", "propriet": "100% para Copel Geração E Transmissão S.A. (SP)", "RIO": "Rio Capivari", "potencia": 260000.0, "ini_oper": "1971-09-03T00:00:00", "ceg": "UHE.PH.PR.001042-1.01", "created_us": "BERNARDO.OLIVEIRA", "created_da": "2024-12-13T00:00:00", "last_edite": "BERNARDO.OLIVEIRA", "last_edi_1": "2024-12-13T00:00:00" }, "geometry": { "type": "Point", "coordinates": [ -48.874444439999934, -25.138333329999966 ] } },
{ "type": "Feature", "properties": { "NOME": "Itaipu (Parte Brasileira)", "propriet": "100% para Itaipu Binacional (SP)", "RIO": "Rio Paraná", "potencia": 14000000.0, "ini_oper": "1989-04-01T00:00:00", "ceg": "UHE.PH.PR.001161-4.01", "created_us": "BERNARDO.OLIVEIRA", "created_da": "2024-12-13T00:00:00", "last_edite": "BERNARDO.OLIVEIRA", "last_edi_1": "2024-12-13T00:00:00" }, "geometry": { "type": "Point", "coordinates": [ -54.587416679999933, -25.408312819999935 ] } },
{ "type": "Feature", "properties": { "NOME": "Salto Osório", "propriet": "100% para ENGIE Brasil Energia S.A. (PIE)", "RIO": "Rio Iguaçu", "potencia": 1078000.0, "ini_oper": "1975-01-01T00:00:00", "ceg": "UHE.PH.PR.002659-0.01", "created_us": "BERNARDO.OLIVEIRA", "created_da": "2024-12-13T00:00:00", "last_edite": "BERNARDO.OLIVEIRA", "last_edi_1": "2024-12-13T00:00:00" }, "geometry": { "type": "Point", "coordinates": [ -53.008967319999954, -25.537568439999973 ] } },
{ "type": "Feature", "properties": { "NOME": "Fundão", "propriet": "100% para CENTRAIS ELÉTRICAS DO RIO JORDÃO S.A. (PIE)", "RIO": "Rio Jordão", "potencia": 120200.0, "ini_oper": "2006-06-23T00:00:00", "ceg": "UHE.PH.PR.028360-6.01", "created_us": "BERNARDO.OLIVEIRA", "created_da": "2024-12-13T00:00:00", "last_edite": "BERNARDO.OLIVEIRA", "last_edi_1": "2024-12-13T00:00:00" }, "geometry": { "type": "Point", "coordinates": [ -52.002022229999966, -25.703448139999978 ] } },
{ "type": "Feature", "properties": { "NOME": "Baixo Iguaçu", "propriet": "70% para GERAÇÃO CÉU AZUL S.A. (PIE) 30% para Copel Geração E Transmissão S.A. (PIE)", "RIO": "Rio Iguaçu", "potencia": 350200.0, "ini_oper": "2019-02-08T00:00:00", "ceg": "UHE.PH.PR.030923-0.01", "created_us": "BERNARDO.OLIVEIRA", "created_da": "2024-12-13T00:00:00", "last_edite": "BERNARDO.OLIVEIRA", "last_edi_1": "2024-12-13T00:00:00" }, "geometry": { "type": "Point", "coordinates": [ -53.671666, -25.50333 ] } },
{ "type": "Feature", "properties": { "NOME": "Fontes Nova", "propriet": "100% para LIGHT ENERGIA S.A (SP)", "RIO": "Ribeirão das Lajes", "potencia": 132000.0, "ini_oper": "1940-01-01T00:00:00", "ceg": "UHE.PH.RJ.000973-3.01", "created_us": "BERNARDO.OLIVEIRA", "created_da": "2024-12-13T00:00:00", "last_edite": "BERNARDO.OLIVEIRA", "last_edi_1": "2024-12-13T00:00:00" }, "geometry": { "type": "Point", "coordinates": [ -43.864444, -22.691389 ] } },
{ "type": "Feature", "properties": { "NOME": "Ilha dos Pombos", "propriet": "100% para LIGHT ENERGIA S.A (SP)", "RIO": "Rio Paraíba do Sul", "potencia": 187200.0, "ini_oper": "1924-01-01T00:00:00", "ceg": "UHE.PH.RJ.001113-4.01", "created_us": "BERNARDO.OLIVEIRA", "created_da": "2024-12-13T00:00:00", "last_edite": "BERNARDO.OLIVEIRA", "last_edi_1": "2024-12-13T00:00:00" }, "geometry": { "type": "Point", "coordinates": [ -42.579444, -21.843333 ] } },
{ "type": "Feature", "properties": { "NOME": "Nilo Peçanha", "propriet": "100% para LIGHT ENERGIA S.A (SP)", "RIO": "Rio Piraí", "potencia": 380000.0, "ini_oper": "1953-01-01T00:00:00", "ceg": "UHE.PH.RJ.001536-9.01", "created_us": "BERNARDO.OLIVEIRA", "created_da": "2024-12-13T00:00:00", "last_edite": "BERNARDO.OLIVEIRA", "last_edi_1": "2024-12-13T00:00:00" }, "geometry": { "type": "Point", "coordinates": [ -43.873275099999944, -22.68330444999998 ] } },
{ "type": "Feature", "properties": { "NOME": "Pereira Passos", "propriet": "100% para LIGHT ENERGIA S.A (SP)", "RIO": "Ribeirão das Lajes", "potencia": 99900.0, "ini_oper": "1962-01-01T00:00:00", "ceg": "UHE.PH.RJ.002043-5.01", "created_us": "BERNARDO.OLIVEIRA", "created_da": "2024-12-13T00:00:00", "last_edite": "BERNARDO.OLIVEIRA", "last_edi_1": "2024-12-13T00:00:00" }, "geometry": { "type": "Point", "coordinates": [ -43.823611, -22.686667 ] } },
{ "type": "Feature", "properties": { "NOME": "Funil", "propriet": "100% para Furnas-Centrais Elétricas S.A. (PIE)", "RIO": "Rio Paraíba do Sul", "potencia": 222000.0, "ini_oper": "1970-03-20T00:00:00", "ceg": "UHE.PH.RJ.027118-7.01", "created_us": "BERNARDO.OLIVEIRA", "created_da": "2024-12-13T00:00:00", "last_edite": "BERNARDO.OLIVEIRA", "last_edi_1": "2024-12-13T00:00:00" }, "geometry": { "type": "Point", "coordinates": [ -44.567931309999949, -22.528812869999967 ] } },
{ "type": "Feature", "properties": { "NOME": "Samuel", "propriet": "100% para CENTRAIS ELÉTRICAS DO NORTE DO BRASIL S/A (SP)", "RIO": "Rio Jamari", "potencia": 216800.0, "ini_oper": "1989-07-17T00:00:00", "ceg": "UHE.PH.RO.002687-5.01", "created_us": "BERNARDO.OLIVEIRA", "created_da": "2024-12-13T00:00:00", "last_edite": "BERNARDO.OLIVEIRA", "last_edi_1": "2024-12-13T00:00:00" }, "geometry": { "type": "Point", "coordinates": [ -63.454230639999935, -8.750980969999944 ] } },
{ "type": "Feature", "properties": { "NOME": "Rondon II", "propriet": "100% para ELETROGOES S/A (SP)", "RIO": "Rio Comemoração", "potencia": 73500.0, "ini_oper": "2011-03-31T00:00:00", "ceg": "UHE.PH.RO.027448-8.01", "created_us": "BERNARDO.OLIVEIRA", "created_da": "2024-12-13T00:00:00", "last_edite": "BERNARDO.OLIVEIRA", "last_edi_1": "2024-12-13T00:00:00" }, "geometry": { "type": "Point", "coordinates": [ -60.696841509999956, -11.995691609999938 ] } },
{ "type": "Feature", "properties": { "NOME": "Santo Antônio", "propriet": "100% para Santo Antônio Energia S.A. (PIE)", "RIO": "Rio Madeira", "potencia": 3568300.0, "ini_oper": "2012-03-30T00:00:00", "ceg": "UHE.PH.RO.029707-0.01", "created_us": "BERNARDO.OLIVEIRA", "created_da": "2024-12-13T00:00:00", "last_edite": "BERNARDO.OLIVEIRA", "last_edi_1": "2024-12-13T00:00:00" }, "geometry": { "type": "Point", "coordinates": [ -63.952184959999954, -8.79668530999993 ] } },
{ "type": "Feature", "properties": { "NOME": "Jirau", "propriet": "100% para Energia Sustentável do Brasil S.A. (PIE)", "RIO": "Rio Madeira", "potencia": 3750000.0, "ini_oper": "2013-09-06T00:00:00", "ceg": "UHE.PH.RO.029736-4.01", "created_us": "BERNARDO.OLIVEIRA", "created_da": "2024-12-13T00:00:00", "last_edite": "BERNARDO.OLIVEIRA", "last_edi_1": "2024-12-13T00:00:00" }, "geometry": { "type": "Point", "coordinates": [ -64.646142649999945, -9.267508119999945 ] } },
{ "type": "Feature", "properties": { "NOME": "14 de Julho", "propriet": "100% para COMPANHIA ENERGÉTICA RIO DAS ANTAS (PIE)", "RIO": "Rio das Antas", "potencia": 100000.0, "ini_oper": "2008-12-25T00:00:00", "ceg": "UHE.PH.RS.000012-4.01", "created_us": "BERNARDO.OLIVEIRA", "created_da": "2024-12-13T00:00:00", "last_edite": "BERNARDO.OLIVEIRA", "last_edi_1": "2024-12-13T00:00:00" }, "geometry": { "type": "Point", "coordinates": [ -51.674941669999953, -29.064752779999935 ] } },
{ "type": "Feature", "properties": { "NOME": "Canastra", "propriet": "100% para Companhia Estadual de Geração de Energia Elétrica - CEEE-G (PIE)", "RIO": "Rio Santa Maria", "potencia": 44800.0, "ini_oper": "1905-05-09T00:00:00", "ceg": "UHE.PH.RS.000635-1.01", "created_us": "BERNARDO.OLIVEIRA", "created_da": "2024-12-13T00:00:00", "last_edite": "BERNARDO.OLIVEIRA", "last_edi_1": "2024-12-13T00:00:00" }, "geometry": { "type": "Point", "coordinates": [ -50.702056109999944, -29.346641169999941 ] } },
{ "type": "Feature", "properties": { "NOME": "Castro Alves", "propriet": "100% para COMPANHIA ENERGÉTICA RIO DAS ANTAS (PIE)", "RIO": "Rio das Antas", "potencia": 130000.0, "ini_oper": "2008-03-04T00:00:00", "ceg": "UHE.PH.RS.000718-8.01", "created_us": "BERNARDO.OLIVEIRA", "created_da": "2024-12-13T00:00:00", "last_edite": "BERNARDO.OLIVEIRA", "last_edi_1": "2024-12-13T00:00:00" }, "geometry": { "type": "Point", "coordinates": [ -51.384417699999972, -29.005298659999937 ] } },
{ "type": "Feature", "properties": { "NOME": "Itá", "propriet": "60.5000% para ITÁ ENERGÉTICA S/A (PIE) 39.5000% para ENGIE Brasil Energia S.A. (PIE)", "RIO": "Rio Uruguai", "potencia": 1450000.0, "ini_oper": "2000-06-15T00:00:00", "ceg": "UHE.PH.RS.001152-5.01", "created_us": "BERNARDO.OLIVEIRA", "created_da": "2024-12-13T00:00:00", "last_edite": "BERNARDO.OLIVEIRA", "last_edi_1": "2024-12-13T00:00:00" }, "geometry": { "type": "Point", "coordinates": [ -52.38216110999997, -27.276711109999951 ] } },
{ "type": "Feature", "properties": { "NOME": "Jacuí", "propriet": "100% para Companhia Estadual de Geração de Energia Elétrica - CEEE-G (PIE)", "RIO": "Rio Jacuí", "potencia": 180000.0, "ini_oper": "1962-01-01T00:00:00", "ceg": "UHE.PH.RS.001217-3.01", "created_us": "BERNARDO.OLIVEIRA", "created_da": "2024-12-13T00:00:00", "last_edite": "BERNARDO.OLIVEIRA", "last_edi_1": "2024-12-13T00:00:00" }, "geometry": { "type": "Point", "coordinates": [ -53.208055559999934, -29.072777779999967 ] } },
{ "type": "Feature", "properties": { "NOME": "Passo Fundo", "propriet": "100% para ENGIE Brasil Energia S.A. (PIE)", "RIO": "Rio Passo Fundo", "potencia": 226000.0, "ini_oper": "1973-03-30T00:00:00", "ceg": "UHE.PH.RS.002001-0.01", "created_us": "BERNARDO.OLIVEIRA", "created_da": "2024-12-13T00:00:00", "last_edite": "BERNARDO.OLIVEIRA", "last_edi_1": "2024-12-13T00:00:00" }, "geometry": { "type": "Point", "coordinates": [ -52.741406959999949, -27.553188389999946 ] } },
{ "type": "Feature", "properties": { "NOME": "Passo Real", "propriet": "100% para Companhia Estadual de Geração de Energia Elétrica - CEEE-G (PIE)", "RIO": "Rio Jacuí", "potencia": 158000.0, "ini_oper": "1973-01-01T00:00:00", "ceg": "UHE.PH.RS.002003-6.01", "created_us": "BERNARDO.OLIVEIRA", "created_da": "2024-12-13T00:00:00", "last_edite": "BERNARDO.OLIVEIRA", "last_edi_1": "2024-12-13T00:00:00" }, "geometry": { "type": "Point", "coordinates": [ -53.190043079999953, -29.017000119999977 ] } },
{ "type": "Feature", "properties": { "NOME": "Dona Francisca", "propriet": "85% para DONA FRANCISCA ENERGÉTICA S.A. (PIE) 15% para Companhia Estadual de Geração de Energia Elétrica - CEEE-G (SP)", "RIO": "Rio Jacuí", "potencia": 125000.0, "ini_oper": "2001-02-05T00:00:00", "ceg": "UHE.PH.RS.027012-1.01", "created_us": "BERNARDO.OLIVEIRA", "created_da": "2024-12-13T00:00:00", "last_edite": "BERNARDO.OLIVEIRA", "last_edi_1": "2024-12-13T00:00:00" }, "geometry": { "type": "Point", "coordinates": [ -53.285003969999934, -29.449088299999971 ] } },
{ "type": "Feature", "properties": { "NOME": "Itaúba", "propriet": "100% para Companhia Estadual de Geração de Energia Elétrica - CEEE-G (PIE)", "RIO": "Rio Jacuí", "potencia": 500000.0, "ini_oper": "1979-01-01T00:00:00", "ceg": "UHE.PH.RS.027019-9.01", "created_us": "BERNARDO.OLIVEIRA", "created_da": "2024-12-13T00:00:00", "last_edite": "BERNARDO.OLIVEIRA", "last_edi_1": "2024-12-13T00:00:00" }, "geometry": { "type": "Point", "coordinates": [ -53.235883329999979, -29.260719439999946 ] } },
{ "type": "Feature", "properties": { "NOME": "Barra Grande", "propriet": "100% para BAESA-ENERGÉTICA BARRA GRANDE S/A (PIE)", "RIO": "Rio Pelotas", "potencia": 690000.0, "ini_oper": "2005-11-01T00:00:00", "ceg": "UHE.PH.RS.027556-5.01", "created_us": "BERNARDO.OLIVEIRA", "created_da": "2024-12-13T00:00:00", "last_edite": "BERNARDO.OLIVEIRA", "last_edi_1": "2024-12-13T00:00:00" }, "geometry": { "type": "Point", "coordinates": [ -51.191899539999952, -27.780261849999931 ] } },
{ "type": "Feature", "properties": { "NOME": "Monte Claro", "propriet": "100% para COMPANHIA ENERGÉTICA RIO DAS ANTAS (PIE)", "RIO": "Rio das Antas", "potencia": 130000.0, "ini_oper": "2004-12-29T00:00:00", "ceg": "UHE.PH.RS.027968-4.01", "created_us": "BERNARDO.OLIVEIRA", "created_da": "2024-12-13T00:00:00", "last_edite": "BERNARDO.OLIVEIRA", "last_edi_1": "2024-12-13T00:00:00" }, "geometry": { "type": "Point", "coordinates": [ -51.521257939999941, -29.030837169999984 ] } },
{ "type": "Feature", "properties": { "NOME": "Foz do Chapecó", "propriet": "100% para Foz do Chapecó Energia S.A. (PIE)", "RIO": "Rio Uruguai", "potencia": 855000.0, "ini_oper": "2010-10-14T00:00:00", "ceg": "UHE.PH.RS.028354-1.01", "created_us": "BERNARDO.OLIVEIRA", "created_da": "2024-12-13T00:00:00", "last_edite": "BERNARDO.OLIVEIRA", "last_edi_1": "2024-12-13T00:00:00" }, "geometry": { "type": "Point", "coordinates": [ -53.043333329999939, -27.14 ] } },
{ "type": "Feature", "properties": { "NOME": "Passo São João", "propriet": "100% para Companhia De Geração e Transmissão de Energia Elétrica do Sul do Brasil - ELETROBRAS CGT ELETROSUL (PIE)", "RIO": "Rio Ijuí", "potencia": 77000.0, "ini_oper": "2012-03-24T00:00:00", "ceg": "UHE.PH.RS.029456-0.01", "created_us": "BERNARDO.OLIVEIRA", "created_da": "2024-12-13T00:00:00", "last_edite": "BERNARDO.OLIVEIRA", "last_edi_1": "2024-12-13T00:00:00" }, "geometry": { "type": "Point", "coordinates": [ -55.051944439999943, -28.14111110999994 ] } },
{ "type": "Feature", "properties": { "NOME": "São José", "propriet": "100% para Ijuí Energia S.A. (PIE)", "RIO": "Rio Ijuí", "potencia": 51000.0, "ini_oper": "2011-03-29T00:00:00", "ceg": "UHE.PH.RS.029459-4.01", "created_us": "BERNARDO.OLIVEIRA", "created_da": "2024-12-13T00:00:00", "last_edite": "BERNARDO.OLIVEIRA", "last_edi_1": "2024-12-13T00:00:00" }, "geometry": { "type": "Point", "coordinates": [ -54.814636749999977, -28.177366039999981 ] } },
{ "type": "Feature", "properties": { "NOME": "Machadinho", "propriet": "27.5232% para CBA MACHADINHO GERAÇÃO DE ENERGIA LTDA. (APE) 25.7431% para Alcoa Alumínio S.A (APE) 19.2845% para ENGIE Brasil Energia S.A. (APE) 8.2927% para VALE S.A. (APE) 5.6176% para Votorantim Cimentos Machadinho Energia Ltda. (APE) 5.5301% para", "RIO": "Rio Uruguai", "potencia": 1140000.0, "ini_oper": "2002-02-16T00:00:00", "ceg": "UHE.PH.SC.001356-0.01", "created_us": "BERNARDO.OLIVEIRA", "created_da": "2024-12-13T00:00:00", "last_edite": "BERNARDO.OLIVEIRA", "last_edi_1": "2024-12-13T00:00:00" }, "geometry": { "type": "Point", "coordinates": [ -51.789683129999958, -27.527064159999952 ] } },
{ "type": "Feature", "properties": { "NOME": "Quebra Queixo", "propriet": "100% para COMPANHIA ENERGÉTICA CHAPECÓ - CEC (PIE)", "RIO": "Rio Chapecó", "potencia": 120000.0, "ini_oper": "2003-12-31T00:00:00", "ceg": "UHE.PH.SC.002167-9.01", "created_us": "BERNARDO.OLIVEIRA", "created_da": "2024-12-13T00:00:00", "last_edite": "BERNARDO.OLIVEIRA", "last_edi_1": "2024-12-13T00:00:00" }, "geometry": { "type": "Point", "coordinates": [ -52.544861819999937, -26.657745149999982 ] } },
{ "type": "Feature", "properties": { "NOME": "Campos Novos", "propriet": "100% para CAMPOS NOVOS ENERGIA S.A. (PIE)", "RIO": "Rio Canoas", "potencia": 880000.0, "ini_oper": "2007-02-03T00:00:00", "ceg": "UHE.PH.SC.027401-1.01", "created_us": "BERNARDO.OLIVEIRA", "created_da": "2024-12-13T00:00:00", "last_edite": "BERNARDO.OLIVEIRA", "last_edi_1": "2024-12-13T00:00:00" }, "geometry": { "type": "Point", "coordinates": [ -51.32711723999995, -27.604118899999946 ] } },
{ "type": "Feature", "properties": { "NOME": "Garibaldi", "propriet": "100% para Rio Canoas Energia S.A. (PIE)", "RIO": "Rio Canoas", "potencia": 189000.0, "ini_oper": "2013-09-24T00:00:00", "ceg": "UHE.PH.SC.030415-8.01", "created_us": "BERNARDO.OLIVEIRA", "created_da": "2024-12-13T00:00:00", "last_edite": "BERNARDO.OLIVEIRA", "last_edi_1": "2024-12-13T00:00:00" }, "geometry": { "type": "Point", "coordinates": [ -50.983888889999946, -27.624722219999967 ] } },
{ "type": "Feature", "properties": { "NOME": "São Roque", "propriet": "100% para São Roque Energética S.A. (PIE)", "RIO": "Rio Canoas", "potencia": 141900.0, "ini_oper": "2022-07-21T00:00:00", "ceg": "UHE.PH.SC.030938-9.01", "created_us": "BERNARDO.OLIVEIRA", "created_da": "2024-12-13T00:00:00", "last_edite": "BERNARDO.OLIVEIRA", "last_edi_1": "2024-12-13T00:00:00" }, "geometry": { "type": "Point", "coordinates": [ -50.804638889999978, -27.497777779999979 ] } },
{ "type": "Feature", "properties": { "NOME": "Xingó", "propriet": "100% para Companhia Hidro Elétrica do São Francisco (PIE)", "RIO": "Rio São Francisco", "potencia": 3162000.0, "ini_oper": "1994-12-16T00:00:00", "ceg": "UHE.PH.SE.027053-9.01", "created_us": "BERNARDO.OLIVEIRA", "created_da": "2024-12-13T00:00:00", "last_edite": "BERNARDO.OLIVEIRA", "last_edi_1": "2024-12-13T00:00:00" }, "geometry": { "type": "Point", "coordinates": [ -37.792559799999935, -9.619580179999957 ] } },
{ "type": "Feature", "properties": { "NOME": "Barra Bonita", "propriet": "100% para AES Brasil Operações S.A. (PIE)", "RIO": "Rio Tietê", "potencia": 140000.0, "ini_oper": "1963-05-20T00:00:00", "ceg": "UHE.PH.SP.000208-9.01", "created_us": "BERNARDO.OLIVEIRA", "created_da": "2024-12-13T00:00:00", "last_edite": "BERNARDO.OLIVEIRA", "last_edi_1": "2024-12-13T00:00:00" }, "geometry": { "type": "Point", "coordinates": [ -48.534444, -22.519444 ] } },
{ "type": "Feature", "properties": { "NOME": "Caconde", "propriet": "100% para AES Brasil Operações S.A. (PIE)", "RIO": "Rio Pardo", "potencia": 80400.0, "ini_oper": "1966-08-22T00:00:00", "ceg": "UHE.PH.SP.000588-6.01", "created_us": "BERNARDO.OLIVEIRA", "created_da": "2024-12-13T00:00:00", "last_edite": "BERNARDO.OLIVEIRA", "last_edi_1": "2024-12-13T00:00:00" }, "geometry": { "type": "Point", "coordinates": [ -46.624166669999966, -21.576666669999952 ] } },
{ "type": "Feature", "properties": { "NOME": "Canoas I", "propriet": "50.3000% para Companhia Brasileira de Alumínio (APE) 49.7000% para Rio Paranapanema Energia S.A. (PIE)", "RIO": "Rio Paranapanema", "potencia": 82500.0, "ini_oper": "1999-05-09T00:00:00", "ceg": "UHE.PH.SP.000647-5.01", "created_us": "BERNARDO.OLIVEIRA", "created_da": "2024-12-13T00:00:00", "last_edite": "BERNARDO.OLIVEIRA", "last_edi_1": "2024-12-13T00:00:00" }, "geometry": { "type": "Point", "coordinates": [ -50.517222219999951, -22.941111109999952 ] } },
{ "type": "Feature", "properties": { "NOME": "Capivara (Escola de Engenharia Mackenzie)", "propriet": "100% para Rio Paranapanema Energia S.A. (PIE)", "RIO": "Rio Paranapanema", "potencia": 627000.0, "ini_oper": "1977-03-10T00:00:00", "ceg": "UHE.PH.SP.000657-2.01", "created_us": "BERNARDO.OLIVEIRA", "created_da": "2024-12-13T00:00:00", "last_edite": "BERNARDO.OLIVEIRA", "last_edi_1": "2024-12-13T00:00:00" }, "geometry": { "type": "Point", "coordinates": [ -51.357087949999936, -22.654686559999959 ] } },
{ "type": "Feature", "properties": { "NOME": "Chavantes", "propriet": "100% para Rio Paranapanema Energia S.A. (PIE)", "RIO": "Rio Paranapanema", "potencia": 414000.0, "ini_oper": "1970-11-30T00:00:00", "ceg": "UHE.PH.SP.000764-1.01", "created_us": "BERNARDO.OLIVEIRA", "created_da": "2024-12-13T00:00:00", "last_edite": "BERNARDO.OLIVEIRA", "last_edi_1": "2024-12-13T00:00:00" }, "geometry": { "type": "Point", "coordinates": [ -49.732959439999945, -23.127956649999931 ] } },
{ "type": "Feature", "properties": { "NOME": "Estreito (Luiz Carlos Barreto de Carvalho)", "propriet": "100% para Furnas-Centrais Elétricas S.A. (PIE)", "RIO": "Rio Grande", "potencia": 1104000.0, "ini_oper": "1969-03-16T00:00:00", "ceg": "UHE.PH.SP.000917-2.01", "created_us": "BERNARDO.OLIVEIRA", "created_da": "2024-12-13T00:00:00", "last_edite": "BERNARDO.OLIVEIRA", "last_edi_1": "2024-12-13T00:00:00" }, "geometry": { "type": "Point", "coordinates": [ -47.279792919999977, -20.150858399999947 ] } },
{ "type": "Feature", "properties": { "NOME": "Euclides da Cunha", "propriet": "100% para AES Brasil Operações S.A. (PIE)", "RIO": "Rio Pardo", "potencia": 108800.0, "ini_oper": "1960-12-07T00:00:00", "ceg": "UHE.PH.SP.000923-7.01", "created_us": "BERNARDO.OLIVEIRA", "created_da": "2024-12-13T00:00:00", "last_edite": "BERNARDO.OLIVEIRA", "last_edi_1": "2024-12-13T00:00:00" }, "geometry": { "type": "Point", "coordinates": [ -46.949167, -21.603056 ] } },
{ "type": "Feature", "properties": { "NOME": "Henry Borden", "propriet": "100% para Empresa Metropolitana de Águas e Energia S.A. (SP)", "RIO": "Rio Pedras", "potencia": 889000.0, "ini_oper": "1926-01-01T00:00:00", "ceg": "UHE.PH.SP.001084-7.01", "created_us": "BERNARDO.OLIVEIRA", "created_da": "2024-12-13T00:00:00", "last_edite": "BERNARDO.OLIVEIRA", "last_edi_1": "2024-12-13T00:00:00" }, "geometry": { "type": "Point", "coordinates": [ -46.462088269999981, -23.861914949999971 ] } },
{ "type": "Feature", "properties": { "NOME": "Ibitinga", "propriet": "100% para AES Brasil Operações S.A. (PIE)", "RIO": "Rio Tietê", "potencia": 131400.0, "ini_oper": "1969-04-20T00:00:00", "ceg": "UHE.PH.SP.001097-9.01", "created_us": "BERNARDO.OLIVEIRA", "created_da": "2024-12-13T00:00:00", "last_edite": "BERNARDO.OLIVEIRA", "last_edi_1": "2024-12-13T00:00:00" }, "geometry": { "type": "Point", "coordinates": [ -48.990556, -21.759167 ] } },
{ "type": "Feature", "properties": { "NOME": "Igarapava", "propriet": "52.6450% para Aliança Geração de Energia S.A. (PIE) 23.9346% para L.D.R.S.P.E. GERAÇÃO DE ENERGIA E PARTICIPAÇÕES LTDA. (APE) 17.9204% para COMPANHIA SIDERÚRGICA NACIONAL (APE) 5.5000% para ANGLOGOLD ASHANTI CÓRREGO DO SÍTIO MINERAÇÃO S.A. (A", "RIO": "Rio Grande", "potencia": 210000.0, "ini_oper": "1998-12-31T00:00:00", "ceg": "UHE.PH.SP.001098-7.01", "created_us": "BERNARDO.OLIVEIRA", "created_da": "2024-12-13T00:00:00", "last_edite": "BERNARDO.OLIVEIRA", "last_edi_1": "2024-12-13T00:00:00" }, "geometry": { "type": "Point", "coordinates": [ -47.755993199999978, -19.989073849999954 ] } },
{ "type": "Feature", "properties": { "NOME": "Ilha Solteira", "propriet": "100% para Rio Paraná Energia S.A. (SP)", "RIO": "Rio Paraná", "potencia": 3444000.0, "ini_oper": "1973-07-18T00:00:00", "ceg": "UHE.PH.SP.001120-7.01", "created_us": "BERNARDO.OLIVEIRA", "created_da": "2024-12-13T00:00:00", "last_edite": "BERNARDO.OLIVEIRA", "last_edi_1": "2024-12-13T00:00:00" }, "geometry": { "type": "Point", "coordinates": [ -51.363611, -20.382222 ] } },
{ "type": "Feature", "properties": { "NOME": "Jaguara", "propriet": "100% para COMPANHIA ENERGÉTICA JAGUARA (SP)", "RIO": "Rio Grande", "potencia": 424000.0, "ini_oper": "1971-01-01T00:00:00", "ceg": "UHE.PH.SP.001225-4.01", "created_us": "BERNARDO.OLIVEIRA", "created_da": "2024-12-13T00:00:00", "last_edite": "BERNARDO.OLIVEIRA", "last_edi_1": "2024-12-13T00:00:00" }, "geometry": { "type": "Point", "coordinates": [ -47.433892409999942, -20.022731949999979 ] } },
{ "type": "Feature", "properties": { "NOME": "Jupiá (Eng° Souza Dias)", "propriet": "100% para Rio Paraná Energia S.A. (SP)", "RIO": "Rio Paraná", "potencia": 1551200.0, "ini_oper": "1969-04-14T00:00:00", "ceg": "UHE.PH.SP.001282-3.01", "created_us": "BERNARDO.OLIVEIRA", "created_da": "2024-12-13T00:00:00", "last_edite": "BERNARDO.OLIVEIRA", "last_edi_1": "2024-12-13T00:00:00" }, "geometry": { "type": "Point", "coordinates": [ -51.626667, -20.775833 ] } },
{ "type": "Feature", "properties": { "NOME": "Jurumirim (Armando Avellanal Laydner)", "propriet": "100% para Rio Paranapanema Energia S.A. (PIE)", "RIO": "Rio Paranapanema", "potencia": 101000.0, "ini_oper": "1962-09-21T00:00:00", "ceg": "UHE.PH.SP.001285-8.01", "created_us": "BERNARDO.OLIVEIRA", "created_da": "2024-12-13T00:00:00", "last_edite": "BERNARDO.OLIVEIRA", "last_edi_1": "2024-12-13T00:00:00" }, "geometry": { "type": "Point", "coordinates": [ -49.230404509999971, -23.210205429999974 ] } },
{ "type": "Feature", "properties": { "NOME": "Monjolinho", "propriet": "100% para Mohini Empreendimentos e Participações Ltda. (REG)", "RIO": "Rio do Monjolinho", "potencia": 600.0, "ini_oper": "1909-01-25T00:00:00", "ceg": "UHE.PH.SP.001486-9.01", "created_us": "BERNARDO.OLIVEIRA", "created_da": "2024-12-13T00:00:00", "last_edite": "BERNARDO.OLIVEIRA", "last_edi_1": "2024-12-13T00:00:00" }, "geometry": { "type": "Point", "coordinates": [ -47.914578039999981, -22.022795679999945 ] } },
{ "type": "Feature", "properties": { "NOME": "Nova Avanhandava (Rui Barbosa)", "propriet": "100% para AES Brasil Operações S.A. (PIE)", "RIO": "Rio Tietê", "potencia": 347400.0, "ini_oper": "1982-12-19T00:00:00", "ceg": "UHE.PH.SP.001552-0.01", "created_us": "BERNARDO.OLIVEIRA", "created_da": "2024-12-13T00:00:00", "last_edite": "BERNARDO.OLIVEIRA", "last_edi_1": "2024-12-13T00:00:00" }, "geometry": { "type": "Point", "coordinates": [ -50.201111, -21.118889 ] } },
{ "type": "Feature", "properties": { "NOME": "Pirajú", "propriet": "100% para Companhia Brasileira de Alumínio (APE)", "RIO": "Rio Paranapanema", "potencia": 80000.0, "ini_oper": "2002-09-12T00:00:00", "ceg": "UHE.PH.SP.002077-0.01", "created_us": "BERNARDO.OLIVEIRA", "created_da": "2024-12-13T00:00:00", "last_edite": "BERNARDO.OLIVEIRA", "last_edi_1": "2024-12-13T00:00:00" }, "geometry": { "type": "Point", "coordinates": [ -49.379971169999976, -23.154237209999962 ] } },
{ "type": "Feature", "properties": { "NOME": "Porto Primavera (Eng° Sérgio Motta)", "propriet": "100% para COMPANHIA ENERGÉTICA DE SÃO PAULO (PIE)", "RIO": "Rio Paraná", "potencia": 1540000.0, "ini_oper": "1999-01-22T00:00:00", "ceg": "UHE.PH.SP.002127-0.01", "created_us": "BERNARDO.OLIVEIRA", "created_da": "2024-12-13T00:00:00", "last_edite": "BERNARDO.OLIVEIRA", "last_edi_1": "2024-12-13T00:00:00" }, "geometry": { "type": "Point", "coordinates": [ -52.958685, -22.475673609999944 ] } },
{ "type": "Feature", "properties": { "NOME": "Promissão (Mário Lopes Leão)", "propriet": "100% para AES Brasil Operações S.A. (PIE)", "RIO": "Rio Tietê", "potencia": 264000.0, "ini_oper": "1975-07-28T00:00:00", "ceg": "UHE.PH.SP.002158-0.01", "created_us": "BERNARDO.OLIVEIRA", "created_da": "2024-12-13T00:00:00", "last_edite": "BERNARDO.OLIVEIRA", "last_edi_1": "2024-12-13T00:00:00" }, "geometry": { "type": "Point", "coordinates": [ -49.783056, -21.296111 ] } },
{ "type": "Feature", "properties": { "NOME": "Rosana", "propriet": "100% para Rio Paranapanema Energia S.A. (PIE)", "RIO": "Rio Paranapanema", "potencia": 354000.0, "ini_oper": "1987-05-20T00:00:00", "ceg": "UHE.PH.SP.002555-0.01", "created_us": "BERNARDO.OLIVEIRA", "created_da": "2024-12-13T00:00:00", "last_edite": "BERNARDO.OLIVEIRA", "last_edi_1": "2024-12-13T00:00:00" }, "geometry": { "type": "Point", "coordinates": [ -52.869444, -22.6 ] } },
{ "type": "Feature", "properties": { "NOME": "Taquaruçu (Escola Politécnica)", "propriet": "100% para Rio Paranapanema Energia S.A. (PIE)", "RIO": "Rio Paranapanema", "potencia": 525000.0, "ini_oper": "1992-11-12T00:00:00", "ceg": "UHE.PH.SP.002821-5.01", "created_us": "BERNARDO.OLIVEIRA", "created_da": "2024-12-13T00:00:00", "last_edite": "BERNARDO.OLIVEIRA", "last_edi_1": "2024-12-13T00:00:00" }, "geometry": { "type": "Point", "coordinates": [ -52.000249839999981, -22.543669109999939 ] } },
{ "type": "Feature", "properties": { "NOME": "Três Irmãos", "propriet": "100% para TIJOÁ PARTICIPAÇÕES E INVESTIMENTOS S.A. (SP)", "RIO": "Rio Tietê", "potencia": 807500.0, "ini_oper": "1993-11-28T00:00:00", "ceg": "UHE.PH.SP.002873-8.01", "created_us": "BERNARDO.OLIVEIRA", "created_da": "2024-12-13T00:00:00", "last_edite": "BERNARDO.OLIVEIRA", "last_edi_1": "2024-12-13T00:00:00" }, "geometry": { "type": "Point", "coordinates": [ -51.299771159999977, -20.668676959999971 ] } },
{ "type": "Feature", "properties": { "NOME": "Volta Grande", "propriet": "100% para Enel Green Power Volta Grande S.A. (SP)", "RIO": "Rio Grande", "potencia": 380000.0, "ini_oper": "1974-04-22T00:00:00", "ceg": "UHE.PH.SP.003045-7.01", "created_us": "BERNARDO.OLIVEIRA", "created_da": "2024-12-13T00:00:00", "last_edite": "BERNARDO.OLIVEIRA", "last_edi_1": "2024-12-13T00:00:00" }, "geometry": { "type": "Point", "coordinates": [ -48.221844269999963, -20.033267209999963 ] } },
{ "type": "Feature", "properties": { "NOME": "Canoas II", "propriet": "50.3000% para Companhia Brasileira de Alumínio (APE) 49.7000% para Rio Paranapanema Energia S.A. (PIE)", "RIO": "Rio Paranapanema", "potencia": 72000.0, "ini_oper": "1999-07-13T00:00:00", "ceg": "UHE.PH.SP.027092-0.01", "created_us": "BERNARDO.OLIVEIRA", "created_da": "2024-12-13T00:00:00", "last_edite": "BERNARDO.OLIVEIRA", "last_edi_1": "2024-12-13T00:00:00" }, "geometry": { "type": "Point", "coordinates": [ -50.250833329999978, -22.938333329999978 ] } },
{ "type": "Feature", "properties": { "NOME": "Paraibuna", "propriet": "100% para COMPANHIA ENERGÉTICA DE SÃO PAULO (SP)", "RIO": "Rio Paraibuna", "potencia": 87000.0, "ini_oper": "1978-04-20T00:00:00", "ceg": "UHE.PH.SP.027122-5.01", "created_us": "BERNARDO.OLIVEIRA", "created_da": "2024-12-13T00:00:00", "last_edite": "BERNARDO.OLIVEIRA", "last_edi_1": "2024-12-13T00:00:00" }, "geometry": { "type": "Point", "coordinates": [ -45.600556, -23.41 ] } },
{ "type": "Feature", "properties": { "NOME": "Jaguari", "propriet": "100% para Furnas-Centrais Elétricas S.A. (SP)", "RIO": "Rio Jaguari", "potencia": 27600.0, "ini_oper": "1973-12-11T00:00:00", "ceg": "UHE.PH.SP.027131-4.01", "created_us": "BERNARDO.OLIVEIRA", "created_da": "2024-12-13T00:00:00", "last_edite": "BERNARDO.OLIVEIRA", "last_edi_1": "2024-12-13T00:00:00" }, "geometry": { "type": "Point", "coordinates": [ -46.021315379999976, -23.192982219999976 ] } },
{ "type": "Feature", "properties": { "NOME": "Ourinhos", "propriet": "100% para Companhia Brasileira de Alumínio (PIE)", "RIO": "Rio Paranapanema", "potencia": 44100.0, "ini_oper": "2005-12-07T00:00:00", "ceg": "UHE.PH.SP.027872-6.01", "created_us": "BERNARDO.OLIVEIRA", "created_da": "2024-12-13T00:00:00", "last_edite": "BERNARDO.OLIVEIRA", "last_edi_1": "2024-12-13T00:00:00" }, "geometry": { "type": "Point", "coordinates": [ -49.83797777999996, -23.068255559999955 ] } },
{ "type": "Feature", "properties": { "NOME": "Luís Eduardo Magalhães (Lajeado)", "propriet": "72.2700% para LAJEADO ENERGIA S/A (PIE) 19.8000% para CEB Lajeado S.A (PIE) 6.9300% para PAULISTA LAJEADO ENERGIA S/A (PIE) 1% para INVESTCO SA (PIE)", "RIO": "Rio Tocantins", "potencia": 902500.0, "ini_oper": "2001-12-01T00:00:00", "ceg": "UHE.PH.TO.001304-8.01", "created_us": "BERNARDO.OLIVEIRA", "created_da": "2024-12-13T00:00:00", "last_edite": "BERNARDO.OLIVEIRA", "last_edi_1": "2024-12-13T00:00:00" }, "geometry": { "type": "Point", "coordinates": [ -48.371960069999943, -9.757355249999932 ] } },
{ "type": "Feature", "properties": { "NOME": "Peixe Angical", "propriet": "100% para Enerpeixe S.A. (PIE)", "RIO": "Rio Tocantins", "potencia": 498800.0, "ini_oper": "2006-06-27T00:00:00", "ceg": "UHE.PH.TO.028353-3.01", "created_us": "BERNARDO.OLIVEIRA", "created_da": "2024-12-13T00:00:00", "last_edite": "BERNARDO.OLIVEIRA", "last_edi_1": "2024-12-13T00:00:00" }, "geometry": { "type": "Point", "coordinates": [ -48.386366939999959, -12.235466549999956 ] } },
{ "type": "Feature", "properties": { "NOME": "Pedra", "propriet": "100% para Companhia Hidro Elétrica do São Francisco (PIE)", "RIO": "Rio das Contas", "potencia": 20007.0, "ini_oper": "1978-11-13T00:00:00", "ceg": "UHE.PH.BA.027052-0.01", "created_us": "BERNARDO.OLIVEIRA", "created_da": "2024-12-13T00:00:00", "last_edite": "BERNARDO.OLIVEIRA", "last_edi_1": "2024-12-13T00:00:00" }, "geometry": { "type": "Point", "coordinates": [ -40.23575872999993, -13.868349509999973 ] } },
{ "type": "Feature", "properties": { "NOME": "Alto Fêmeas I", "propriet": "100% para AFLUENTE GERAÇÃO DE ENERGIA ELÉTRICA S.A (SP)", "RIO": "Rio das Fêmeas", "potencia": 10649.0, "ini_oper": "1992-01-01T00:00:00", "ceg": "UHE.PH.BA.027414-3.01", "created_us": "BERNARDO.OLIVEIRA", "created_da": "2024-12-13T00:00:00", "last_edite": "BERNARDO.OLIVEIRA", "last_edi_1": "2024-12-13T00:00:00" }, "geometry": { "type": "Point", "coordinates": [ -45.19069221999996, -12.452377499999955 ] } },
{ "type": "Feature", "properties": { "NOME": "Muniz Freire", "propriet": "100% para SAMARCO MINERAÇÃO S.A. (APE)", "RIO": "Rio Pardo", "potencia": 25000.0, "ini_oper": "1997-01-01T00:00:00", "ceg": "UHE.PH.ES.001518-0.01", "created_us": "BERNARDO.OLIVEIRA", "created_da": "2024-12-13T00:00:00", "last_edite": "BERNARDO.OLIVEIRA", "last_edi_1": "2024-12-13T00:00:00" }, "geometry": { "type": "Point", "coordinates": [ -41.479346989999954, -20.456880019999971 ] } },
{ "type": "Feature", "properties": { "NOME": "Rochedo", "propriet": "100% para Companhia CELG de Participações - CELGPAR (SP)", "RIO": "Rio Meia Ponte", "potencia": 4000.0, "ini_oper": "1956-01-01T00:00:00", "ceg": "UHE.PH.GO.002537-2.02", "created_us": "BERNARDO.OLIVEIRA", "created_da": "2024-12-13T00:00:00", "last_edite": "BERNARDO.OLIVEIRA", "last_edi_1": "2024-12-13T00:00:00" }, "geometry": { "type": "Point", "coordinates": [ -49.21722221999994, -17.388216669999963 ] } },
{ "type": "Feature", "properties": { "NOME": "São Domingos", "propriet": "100% para Companhia CELG de Participações - CELGPAR (SP)", "RIO": "Rio São Domingos", "potencia": 12000.0, "ini_oper": "1990-06-19T00:00:00", "ceg": "UHE.PH.GO.027665-0.01", "created_us": "BERNARDO.OLIVEIRA", "created_da": "2024-12-13T00:00:00", "last_edite": "BERNARDO.OLIVEIRA", "last_edi_1": "2024-12-13T00:00:00" }, "geometry": { "type": "Point", "coordinates": [ -46.342565199999967, -13.40603920999996 ] } },
{ "type": "Feature", "properties": { "NOME": "Pedro Affonso Junqueira (Antiga Antas I)", "propriet": "100% para Dme Energética S.A. - DMEE (SP)", "RIO": "Rio das Antas", "potencia": 8780.0, "ini_oper": "1911-01-01T00:00:00", "ceg": "UHE.PH.MG.000109-0.01", "created_us": "BERNARDO.OLIVEIRA", "created_da": "2024-12-13T00:00:00", "last_edite": "BERNARDO.OLIVEIRA", "last_edi_1": "2024-12-13T00:00:00" }, "geometry": { "type": "Point", "coordinates": [ -46.60781652999998, -21.767762679999976 ] } },
{ "type": "Feature", "properties": { "NOME": "Walter Rossi (Antiga Antas II)", "propriet": "100% para DME DISTRIBUIÇÃO S.A. - DMED (SP)", "RIO": "Rio Lambari", "potencia": 16500.0, "ini_oper": "1998-07-01T00:00:00", "ceg": "UHE.PH.MG.000110-4.01", "created_us": "BERNARDO.OLIVEIRA", "created_da": "2024-12-13T00:00:00", "last_edite": "BERNARDO.OLIVEIRA", "last_edi_1": "2024-12-13T00:00:00" }, "geometry": { "type": "Point", "coordinates": [ -46.605, -21.763333329999966 ] } },
{ "type": "Feature", "properties": { "NOME": "Barra do Braúna", "propriet": "100% para Elera Renováveis S.A. (PIE)", "RIO": "Rio Pomba", "potencia": 39000.0, "ini_oper": "2009-12-25T00:00:00", "ceg": "UHE.PH.MG.000215-1.01", "created_us": "BERNARDO.OLIVEIRA", "created_da": "2024-12-13T00:00:00", "last_edite": "BERNARDO.OLIVEIRA", "last_edi_1": "2024-12-13T00:00:00" }, "geometry": { "type": "Point", "coordinates": [ -42.404638359999979, -21.450141849999966 ] } },
{ "type": "Feature", "properties": { "NOME": "Brecha", "propriet": "100% para NOVELIS DO BRASIL LTDA. (APE)", "RIO": "Rio Piranga", "potencia": 12400.0, "ini_oper": "1958-01-01T00:00:00", "ceg": "UHE.PH.MG.000315-8.01", "created_us": "BERNARDO.OLIVEIRA", "created_da": "2024-12-13T00:00:00", "last_edite": "BERNARDO.OLIVEIRA", "last_edi_1": "2024-12-13T00:00:00" }, "geometry": { "type": "Point", "coordinates": [ -42.959183579999944, -20.545282679999957 ] } },
{ "type": "Feature", "properties": { "NOME": "João Camilo Penna (Antiga Cachoeira do Emboque)", "propriet": "100% para ZONA DA MATA GERAÇÃO S/A (SP)", "RIO": "Rio Matipó", "potencia": 21600.0, "ini_oper": "1998-01-01T00:00:00", "ceg": "UHE.PH.MG.000473-1.01", "created_us": "BERNARDO.OLIVEIRA", "created_da": "2024-12-13T00:00:00", "last_edite": "BERNARDO.OLIVEIRA", "last_edi_1": "2024-12-13T00:00:00" }, "geometry": { "type": "Point", "coordinates": [ -42.396767099999977, -20.117555539999955 ] } },
{ "type": "Feature", "properties": { "NOME": "Cajuru", "propriet": "100% para CEMIG Geração Oeste S.A. (SP)", "RIO": "Rio Pará", "potencia": 7200.0, "ini_oper": "1954-01-01T00:00:00", "ceg": "UHE.PH.MG.000597-5.01", "created_us": "BERNARDO.OLIVEIRA", "created_da": "2024-12-13T00:00:00", "last_edite": "BERNARDO.OLIVEIRA", "last_edi_1": "2024-12-13T00:00:00" }, "geometry": { "type": "Point", "coordinates": [ -44.75417871999997, -20.238651669999967 ] } },
{ "type": "Feature", "properties": { "NOME": "Coronel Domiciano", "propriet": "100% para CEMIG Geração Sul S.A. (SP)", "RIO": "Rio Fumaça", "potencia": 5040.0, "ini_oper": "1994-07-01T00:00:00", "ceg": "UHE.PH.MG.000838-9.02", "created_us": "BERNARDO.OLIVEIRA", "created_da": "2024-12-13T00:00:00", "last_edite": "BERNARDO.OLIVEIRA", "last_edi_1": "2024-12-13T00:00:00" }, "geometry": { "type": "Point", "coordinates": [ -42.448056119999933, -21.013463859999945 ] } },
{ "type": "Feature", "properties": { "NOME": "Gafanhoto", "propriet": "100% para CEMIG Geração Oeste S.A. (SP)", "RIO": "Rio Pará", "potencia": 14000.0, "ini_oper": "1946-01-01T00:00:00", "ceg": "UHE.PH.MG.001011-1.02", "created_us": "BERNARDO.OLIVEIRA", "created_da": "2024-12-13T00:00:00", "last_edite": "BERNARDO.OLIVEIRA", "last_edi_1": "2024-12-13T00:00:00" }, "geometry": { "type": "Point", "coordinates": [ -44.843055559999982, -20.103888889999951 ] } },
{ "type": "Feature", "properties": { "NOME": "Glória", "propriet": "100% para Companhia Energética Rio Preto S.A. (PIE)", "RIO": "Rio Glória", "potencia": 13800.0, "ini_oper": "1983-01-01T00:00:00", "ceg": "UHE.PH.MG.001034-0.01", "created_us": "BERNARDO.OLIVEIRA", "created_da": "2024-12-13T00:00:00", "last_edite": "BERNARDO.OLIVEIRA", "last_edi_1": "2024-12-13T00:00:00" }, "geometry": { "type": "Point", "coordinates": [ -42.329003359999945, -21.039869219999957 ] } },
{ "type": "Feature", "properties": { "NOME": "Joasal", "propriet": "100% para CEMIG Geração Sul S.A. (SP)", "RIO": "Rio Paraibuna", "potencia": 8400.0, "ini_oper": "1950-05-01T00:00:00", "ceg": "UHE.PH.MG.001255-6.02", "created_us": "BERNARDO.OLIVEIRA", "created_da": "2024-12-13T00:00:00", "last_edite": "BERNARDO.OLIVEIRA", "last_edi_1": "2024-12-13T00:00:00" }, "geometry": { "type": "Point", "coordinates": [ -43.296859749999953, -21.796560829999976 ] } },
{ "type": "Feature", "properties": { "NOME": "Marmelos", "propriet": "100% para CEMIG Geração Sul S.A. (SP)", "RIO": "Rio Paraibuna", "potencia": 4000.0, "ini_oper": "1915-01-01T00:00:00", "ceg": "UHE.PH.MG.001420-6.02", "created_us": "BERNARDO.OLIVEIRA", "created_da": "2024-12-13T00:00:00", "last_edite": "BERNARDO.OLIVEIRA", "last_edi_1": "2024-12-13T00:00:00" }, "geometry": { "type": "Point", "coordinates": [ -43.310504639999976, -21.787049139999965 ] } },
{ "type": "Feature", "properties": { "NOME": "Martins", "propriet": "100% para CEMIG Geração Oeste S.A. (SP)", "RIO": "Rio Uberabinha", "potencia": 7700.0, "ini_oper": "1950-11-01T00:00:00", "ceg": "UHE.PH.MG.001427-3.02", "created_us": "BERNARDO.OLIVEIRA", "created_da": "2024-12-13T00:00:00", "last_edite": "BERNARDO.OLIVEIRA", "last_edi_1": "2024-12-13T00:00:00" }, "geometry": { "type": "Point", "coordinates": [ -48.387174439999967, -18.810852759999932 ] } },
{ "type": "Feature", "properties": { "NOME": "Neblina", "propriet": "100% para CEMIG Geração Leste S.A. (SP)", "RIO": "Rio Manhuaçu", "potencia": 6180.0, "ini_oper": "1948-11-01T00:00:00", "ceg": "UHE.PH.MG.001533-4.02", "created_us": "BERNARDO.OLIVEIRA", "created_da": "2024-12-13T00:00:00", "last_edite": "BERNARDO.OLIVEIRA", "last_edi_1": "2024-12-13T00:00:00" }, "geometry": { "type": "Point", "coordinates": [ -41.800730729999941, -19.832809849999933 ] } },
{ "type": "Feature", "properties": { "NOME": "Paciência", "propriet": "100% para CEMIG Geração Sul S.A. (SP)", "RIO": "Rio Paraibuna", "potencia": 4080.0, "ini_oper": "1930-05-27T00:00:00", "ceg": "UHE.PH.MG.001927-5.02", "created_us": "BERNARDO.OLIVEIRA", "created_da": "2024-12-13T00:00:00", "last_edite": "BERNARDO.OLIVEIRA", "last_edi_1": "2024-12-13T00:00:00" }, "geometry": { "type": "Point", "coordinates": [ -43.339476189999971, -21.844671439999956 ] } },
{ "type": "Feature", "properties": { "NOME": "Peti", "propriet": "100% para CEMIG Geração Leste S.A. (SP)", "RIO": "Rio Santa Bárbara", "potencia": 9400.0, "ini_oper": "1946-05-19T00:00:00", "ceg": "UHE.PH.MG.002047-8.01", "created_us": "BERNARDO.OLIVEIRA", "created_da": "2024-12-13T00:00:00", "last_edite": "BERNARDO.OLIVEIRA", "last_edi_1": "2024-12-13T00:00:00" }, "geometry": { "type": "Point", "coordinates": [ -43.366559489999929, -19.893533659999946 ] } },
{ "type": "Feature", "properties": { "NOME": "Piau", "propriet": "100% para CEMIG Geração Sul S.A. (SP)", "RIO": "Rio Piau", "potencia": 18012.0, "ini_oper": "1955-01-01T00:00:00", "ceg": "UHE.PH.MG.002052-4.02", "created_us": "BERNARDO.OLIVEIRA", "created_da": "2024-12-13T00:00:00", "last_edite": "BERNARDO.OLIVEIRA", "last_edi_1": "2024-12-13T00:00:00" }, "geometry": { "type": "Point", "coordinates": [ -43.402222219999942, -21.489166669999975 ] } },
{ "type": "Feature", "properties": { "NOME": "Sinceridade", "propriet": "100% para CEMIG Geração Leste S.A. (SP)", "RIO": "Rio Manhuaçu", "potencia": 1416.0, "ini_oper": "1963-03-01T00:00:00", "ceg": "UHE.PH.MG.002751-0.02", "created_us": "BERNARDO.OLIVEIRA", "created_da": "2024-12-13T00:00:00", "last_edite": "BERNARDO.OLIVEIRA", "last_edi_1": "2024-12-13T00:00:00" }, "geometry": { "type": "Point", "coordinates": [ -41.995558039999935, -20.227382649999981 ] } },
{ "type": "Feature", "properties": { "NOME": "Tronqueiras", "propriet": "100% para CEMIG Geração Leste S.A. (SP)", "RIO": "Rio Tronqueiras", "potencia": 8500.0, "ini_oper": "1954-10-01T00:00:00", "ceg": "UHE.PH.MG.002886-0.02", "created_us": "BERNARDO.OLIVEIRA", "created_da": "2024-12-13T00:00:00", "last_edite": "BERNARDO.OLIVEIRA", "last_edi_1": "2024-12-13T00:00:00" }, "geometry": { "type": "Point", "coordinates": [ -42.262874289999957, -18.718991919999951 ] } },
{ "type": "Feature", "properties": { "NOME": "Ervália", "propriet": "100% para CEMIG Geração Leste S.A. (SP)", "RIO": "Rio dos Bagres", "potencia": 6970.0, "ini_oper": "1999-01-01T00:00:00", "ceg": "UHE.PH.MG.027034-2.02", "created_us": "BERNARDO.OLIVEIRA", "created_da": "2024-12-13T00:00:00", "last_edite": "BERNARDO.OLIVEIRA", "last_edi_1": "2024-12-13T00:00:00" }, "geometry": { "type": "Point", "coordinates": [ -42.661611109999967, -20.907055559999947 ] } },
{ "type": "Feature", "properties": { "NOME": "Dona Rita", "propriet": "100% para CEMIG Geração Leste S.A. (SP)", "RIO": "Rio Tanque", "potencia": 2410.0, "ini_oper": "1959-01-01T00:00:00", "ceg": "UHE.PH.MG.028084-4.02", "created_us": "BERNARDO.OLIVEIRA", "created_da": "2024-12-13T00:00:00", "last_edite": "BERNARDO.OLIVEIRA", "last_edi_1": "2024-12-13T00:00:00" }, "geometry": { "type": "Point", "coordinates": [ -43.200833329999966, -19.423333329999934 ] } },
{ "type": "Feature", "properties": { "NOME": "São Domingos", "propriet": "100% para Companhia De Geração e Transmissão de Energia Elétrica do Sul do Brasil - ELETROBRAS CGT ELETROSUL (PIE)", "RIO": "Rio Verde", "potencia": 48000.0, "ini_oper": "2013-06-14T00:00:00", "ceg": "UHE.PH.MS.028761-0.01", "created_us": "BERNARDO.OLIVEIRA", "created_da": "2024-12-13T00:00:00", "last_edite": "BERNARDO.OLIVEIRA", "last_edi_1": "2024-12-13T00:00:00" }, "geometry": { "type": "Point", "coordinates": [ -53.180371069999978, -20.059753949999958 ] } },
{ "type": "Feature", "properties": { "NOME": "Casca III", "propriet": "100% para APIACÁS ENERGIA S.A. (PIE)", "RIO": "Rio da Casca", "potencia": 12420.0, "ini_oper": "1970-01-01T00:00:00", "ceg": "UHE.PH.MT.000688-2.02", "created_us": "BERNARDO.OLIVEIRA", "created_da": "2024-12-13T00:00:00", "last_edite": "BERNARDO.OLIVEIRA", "last_edi_1": "2024-12-13T00:00:00" }, "geometry": { "type": "Point", "coordinates": [ -55.453690489999985, -15.357394239999962 ] } },
{ "type": "Feature", "properties": { "NOME": "Juba I", "propriet": "100% para ITAMARATI NORTE S/A AGROPECUÁRIA (APE)", "RIO": "Rio Juba", "potencia": 42000.0, "ini_oper": "1995-11-10T00:00:00", "ceg": "UHE.PH.MT.001268-8.01", "created_us": "BERNARDO.OLIVEIRA", "created_da": "2024-12-13T00:00:00", "last_edite": "BERNARDO.OLIVEIRA", "last_edi_1": "2024-12-13T00:00:00" }, "geometry": { "type": "Point", "coordinates": [ -58.103248059999942, -14.74020416999997 ] } },
{ "type": "Feature", "properties": { "NOME": "Juba II", "propriet": "100% para ITAMARATI NORTE S/A AGROPECUÁRIA (APE)", "RIO": "Rio Juba", "potencia": 42000.0, "ini_oper": "1995-08-16T00:00:00", "ceg": "UHE.PH.MT.001269-6.01", "created_us": "BERNARDO.OLIVEIRA", "created_da": "2024-12-13T00:00:00", "last_edite": "BERNARDO.OLIVEIRA", "last_edi_1": "2024-12-13T00:00:00" }, "geometry": { "type": "Point", "coordinates": [ -58.046211669999934, -14.755685 ] } },
{ "type": "Feature", "properties": { "NOME": "Aripuanã", "propriet": "100% para Juruena Energia S.A (SP)", "RIO": "Rio Aripuanã", "potencia": 800.0, "ini_oper": "1987-08-01T00:00:00", "ceg": "UHE.PH.MT.027417-8.02", "created_us": "BERNARDO.OLIVEIRA", "created_da": "2024-12-13T00:00:00", "last_edite": "BERNARDO.OLIVEIRA", "last_edi_1": "2024-12-13T00:00:00" }, "geometry": { "type": "Point", "coordinates": [ -59.475270619999947, -10.261363689999939 ] } },
{ "type": "Feature", "properties": { "NOME": "Salto Apiacás", "propriet": "100% para Enel Green Power Salto Apiacás S.A (PIE)", "RIO": "Rio dos Apiacás", "potencia": 45000.0, "ini_oper": "2016-09-17T00:00:00", "ceg": "UHE.PH.MT.031401-3.01", "created_us": "BERNARDO.OLIVEIRA", "created_da": "2024-12-13T00:00:00", "last_edite": "BERNARDO.OLIVEIRA", "last_edi_1": "2024-12-13T00:00:00" }, "geometry": { "type": "Point", "coordinates": [ -56.982777839999983, -10.338611079999964 ] } },
{ "type": "Feature", "properties": { "NOME": "Guaricana", "propriet": "100% para Copel Geração E Transmissão S.A. (PIE)", "RIO": "Rio Arraial", "potencia": 36000.0, "ini_oper": "1957-05-01T00:00:00", "ceg": "UHE.PH.PR.001075-8.01", "created_us": "BERNARDO.OLIVEIRA", "created_da": "2024-12-13T00:00:00", "last_edite": "BERNARDO.OLIVEIRA", "last_edi_1": "2024-12-13T00:00:00" }, "geometry": { "type": "Point", "coordinates": [ -48.97296713999998, -25.714940419999948 ] } },
{ "type": "Feature", "properties": { "NOME": "Mourão I", "propriet": "100% para Enel Green Power Mourão S.A. (SP)", "RIO": "Rio Mourão", "potencia": 8200.0, "ini_oper": "1964-06-01T00:00:00", "ceg": "UHE.PH.PR.001509-1.02", "created_us": "BERNARDO.OLIVEIRA", "created_da": "2024-12-13T00:00:00", "last_edite": "BERNARDO.OLIVEIRA", "last_edi_1": "2024-12-13T00:00:00" }, "geometry": { "type": "Point", "coordinates": [ -52.330058329999986, -24.105016669999941 ] } },
{ "type": "Feature", "properties": { "NOME": "Salto Curucaca (Antiga Salto Curucaca II)", "propriet": "59.9400% para SANTA MARIA CIA DE PAPEL E CELULOSE (APE) 39.9600% para COOPERATIVA AGRÁRIA AGROINDUSTRIAL (APE) 0.1000% para CURUCACA GERADORA S.A. (APE)", "RIO": "Rio Jordão", "potencia": 37042.0, "ini_oper": "2016-09-03T00:00:00", "ceg": "UHE.PH.PR.028994-9.01", "created_us": "BERNARDO.OLIVEIRA", "created_da": "2024-12-13T00:00:00", "last_edite": "BERNARDO.OLIVEIRA", "last_edi_1": "2024-12-13T00:00:00" }, "geometry": { "type": "Point", "coordinates": [ -51.81555555999995, -25.532777779999947 ] } },
{ "type": "Feature", "properties": { "NOME": "Tibagi Montante", "propriet": "100% para Tibagi Energia SPE S.A. (PIE)", "RIO": "Rio Tibagi", "potencia": 36000.0, "ini_oper": "2019-10-05T00:00:00", "ceg": "UHE.PH.PR.032923-1.01", "created_us": "BERNARDO.OLIVEIRA", "created_da": "2024-12-13T00:00:00", "last_edite": "BERNARDO.OLIVEIRA", "last_edi_1": "2024-12-13T00:00:00" }, "geometry": { "type": "Point", "coordinates": [ -50.40638875999997, -24.534166619999951 ] } },
{ "type": "Feature", "properties": { "NOME": "Bugres", "propriet": "100% para Companhia Estadual de Geração de Energia Elétrica - CEEE-G (PIE)", "RIO": "Rio Santa Cruz", "potencia": 19200.0, "ini_oper": "1952-07-01T00:00:00", "ceg": "UHE.PH.RS.000324-7.01", "created_us": "BERNARDO.OLIVEIRA", "created_da": "2024-12-13T00:00:00", "last_edite": "BERNARDO.OLIVEIRA", "last_edi_1": "2024-12-13T00:00:00" }, "geometry": { "type": "Point", "coordinates": [ -50.67983610999994, -29.314808329999948 ] } },
{ "type": "Feature", "properties": { "NOME": "Passo de Ajuricaba", "propriet": "100% para DEPARTAMENTO MUNICIPAL DE ENERGIA DE IJUÍ GERAÇÃO (SP)", "RIO": "Rio Ijuí", "potencia": 3200.0, "ini_oper": "1959-10-19T00:00:00", "ceg": "UHE.PH.RS.001997-6.02", "created_us": "BERNARDO.OLIVEIRA", "created_da": "2024-12-13T00:00:00", "last_edite": "BERNARDO.OLIVEIRA", "last_edi_1": "2024-12-13T00:00:00" }, "geometry": { "type": "Point", "coordinates": [ -53.81025305999998, -28.282982779999941 ] } },
{ "type": "Feature", "properties": { "NOME": "Bracinho", "propriet": "100% para CELESC Geração S.A. (SP)", "RIO": "Rio Bracinho", "potencia": 15000.0, "ini_oper": "1931-01-01T00:00:00", "ceg": "UHE.PH.SC.000302-6.02", "created_us": "BERNARDO.OLIVEIRA", "created_da": "2024-12-13T00:00:00", "last_edite": "BERNARDO.OLIVEIRA", "last_edi_1": "2024-12-13T00:00:00" }, "geometry": { "type": "Point", "coordinates": [ -49.095365559999948, -26.330014389999974 ] } },
{ "type": "Feature", "properties": { "NOME": "Cedros (Rio dos Cedros)", "propriet": "100% para CELESC Geração S.A. (SP)", "RIO": "Rio dos Cedros", "potencia": 8400.0, "ini_oper": "1949-01-01T00:00:00", "ceg": "UHE.PH.SC.000737-4.02", "created_us": "BERNARDO.OLIVEIRA", "created_da": "2024-12-13T00:00:00", "last_edite": "BERNARDO.OLIVEIRA", "last_edi_1": "2024-12-13T00:00:00" }, "geometry": { "type": "Point", "coordinates": [ -49.35694443999995, -26.645 ] } },
{ "type": "Feature", "properties": { "NOME": "Garcia", "propriet": "100% para CELESC Geração S.A. (SP)", "RIO": "Rio Garcia", "potencia": 8920.0, "ini_oper": "1964-01-01T00:00:00", "ceg": "UHE.PH.SC.001019-7.02", "created_us": "BERNARDO.OLIVEIRA", "created_da": "2024-12-13T00:00:00", "last_edite": "BERNARDO.OLIVEIRA", "last_edi_1": "2024-12-13T00:00:00" }, "geometry": { "type": "Point", "coordinates": [ -49.006263429999933, -27.548630679999974 ] } },
{ "type": "Feature", "properties": { "NOME": "Palmeiras", "propriet": "100% para CELESC Geração S.A. (SP)", "RIO": "Rio dos Cedros", "potencia": 24602.0, "ini_oper": "1963-01-01T00:00:00", "ceg": "UHE.PH.SC.001945-3.01", "created_us": "BERNARDO.OLIVEIRA", "created_da": "2024-12-13T00:00:00", "last_edite": "BERNARDO.OLIVEIRA", "last_edi_1": "2024-12-13T00:00:00" }, "geometry": { "type": "Point", "coordinates": [ -49.338538059999962, -26.648868359999938 ] } },
{ "type": "Feature", "properties": { "NOME": "Pery", "propriet": "100% para CELESC Geração S.A. (SP)", "RIO": "Rio Canoas", "potencia": 30000.0, "ini_oper": "2013-10-24T00:00:00", "ceg": "UHE.PH.SC.002045-1.02", "created_us": "BERNARDO.OLIVEIRA", "created_da": "2024-12-13T00:00:00", "last_edite": "BERNARDO.OLIVEIRA", "last_edi_1": "2024-12-13T00:00:00" }, "geometry": { "type": "Point", "coordinates": [ -50.63972377999994, -27.457752889999938 ] } },
{ "type": "Feature", "properties": { "NOME": "Salto (Salto Weissbach)", "propriet": "100% para CELESC Geração S.A. (SP)", "RIO": "Rio Itajaí-Açu", "potencia": 6280.0, "ini_oper": "1914-01-01T00:00:00", "ceg": "UHE.PH.SC.002682-4.02", "created_us": "BERNARDO.OLIVEIRA", "created_da": "2024-12-13T00:00:00", "last_edite": "BERNARDO.OLIVEIRA", "last_edi_1": "2024-12-13T00:00:00" }, "geometry": { "type": "Point", "coordinates": [ -49.11, -26.879722219999962 ] } },
{ "type": "Feature", "properties": { "NOME": "Paranapanema", "propriet": "100% para Enel Green Power Paranapanema S.A. (SP)", "RIO": "Rio Paranapanema", "potencia": 31500.0, "ini_oper": "1957-01-01T00:00:00", "ceg": "UHE.PH.SP.001972-0.01", "created_us": "BERNARDO.OLIVEIRA", "created_da": "2024-12-13T00:00:00", "last_edite": "BERNARDO.OLIVEIRA", "last_edi_1": "2024-12-13T00:00:00" }, "geometry": { "type": "Point", "coordinates": [ -49.384466019999934, -23.187693529999933 ] } },
{ "type": "Feature", "properties": { "NOME": "Porto Góes", "propriet": "100% para Empresa Metropolitana de Águas e Energia S.A. (SP)", "RIO": "Rio Tietê", "potencia": 24800.0, "ini_oper": "1928-11-04T00:00:00", "ceg": "UHE.PH.SP.002123-7.01", "created_us": "BERNARDO.OLIVEIRA", "created_da": "2024-12-13T00:00:00", "last_edite": "BERNARDO.OLIVEIRA", "last_edi_1": "2024-12-13T00:00:00" }, "geometry": { "type": "Point", "coordinates": [ -47.299406159999933, -23.209404949999964 ] } },
{ "type": "Feature", "properties": { "NOME": "Rasgão", "propriet": "100% para Empresa Metropolitana de Águas e Energia S.A. (SP)", "RIO": "Rio Tietê", "potencia": 22000.0, "ini_oper": "1925-09-06T00:00:00", "ceg": "UHE.PH.SP.002187-3.01", "created_us": "BERNARDO.OLIVEIRA", "created_da": "2024-12-13T00:00:00", "last_edite": "BERNARDO.OLIVEIRA", "last_edi_1": "2024-12-13T00:00:00" }, "geometry": { "type": "Point", "coordinates": [ -47.029604589999963, -23.383093299999928 ] } },
{ "type": "Feature", "properties": { "NOME": "Rio do Peixe (Casa de Força I e II)", "propriet": "100% para CPFL ENERGIAS RENOVÁVEIS S.A. (SP)", "RIO": "Rio do Peixe", "potencia": 18000.0, "ini_oper": "1925-01-01T00:00:00", "ceg": "UHE.PH.SP.002353-1.01", "created_us": "BERNARDO.OLIVEIRA", "created_da": "2024-12-13T00:00:00", "last_edite": "BERNARDO.OLIVEIRA", "last_edi_1": "2024-12-13T00:00:00" }, "geometry": { "type": "Point", "coordinates": [ -46.790440789999934, -21.627084779999961 ] } },
{ "type": "Feature", "properties": { "NOME": "Apolônio Sales (Antiga Moxotó)", "propriet": "100% para Companhia Hidro Elétrica do São Francisco (PIE)", "RIO": "Rio São Francisco", "potencia": 400000.0, "ini_oper": "1977-04-15T00:00:00", "ceg": "UHE.PH.AL.001510-5.01", "created_us": "BERNARDO.OLIVEIRA", "created_da": "2024-12-13T00:00:00", "last_edite": "BERNARDO.OLIVEIRA", "last_edi_1": "2024-12-13T00:00:00" }, "geometry": { "type": "Point", "coordinates": [ -38.208490919999974, -9.358110159999967 ] } },
{ "type": "Feature", "properties": { "NOME": "Paulo Afonso I", "propriet": "100% para Companhia Hidro Elétrica do São Francisco (PIE)", "RIO": "Rio São Francisco", "potencia": 180001.0, "ini_oper": "1964-12-30T00:00:00", "ceg": "UHE.PH.BA.002012-5.01", "created_us": "BERNARDO.OLIVEIRA", "created_da": "2024-12-13T00:00:00", "last_edite": "BERNARDO.OLIVEIRA", "last_edi_1": "2024-12-13T00:00:00" }, "geometry": { "type": "Point", "coordinates": [ -38.202872439999965, -9.398103779999929 ] } },
{ "type": "Feature", "properties": { "NOME": "Paulo Afonso II", "propriet": "100% para Companhia Hidro Elétrica do São Francisco (PIE)", "RIO": "Rio São Francisco", "potencia": 443000.0, "ini_oper": "1961-10-24T00:00:00", "ceg": "UHE.PH.BA.027048-2.01", "created_us": "BERNARDO.OLIVEIRA", "created_da": "2024-12-13T00:00:00", "last_edite": "BERNARDO.OLIVEIRA", "last_edi_1": "2024-12-13T00:00:00" }, "geometry": { "type": "Point", "coordinates": [ -38.202663049999956, -9.396883119999927 ] } },
{ "type": "Feature", "properties": { "NOME": "Paulo Afonso III", "propriet": "100% para Companhia Hidro Elétrica do São Francisco (PIE)", "RIO": "Rio São Francisco", "potencia": 794200.0, "ini_oper": "1971-10-21T00:00:00", "ceg": "UHE.PH.BA.027049-0.01", "created_us": "BERNARDO.OLIVEIRA", "created_da": "2024-12-13T00:00:00", "last_edite": "BERNARDO.OLIVEIRA", "last_edi_1": "2024-12-13T00:00:00" }, "geometry": { "type": "Point", "coordinates": [ -38.201937309999948, -9.396050309999964 ] } },
{ "type": "Feature", "properties": { "NOME": "Paulo Afonso IV", "propriet": "100% para Companhia Hidro Elétrica do São Francisco (PIE)", "RIO": "São Francisco", "potencia": 2462400.0, "ini_oper": "1979-12-01T00:00:00", "ceg": "UHE.PH.BA.027050-4.01", "created_us": "BERNARDO.OLIVEIRA", "created_da": "2024-12-13T00:00:00", "last_edite": "BERNARDO.OLIVEIRA", "last_edi_1": "2024-12-13T00:00:00" }, "geometry": { "type": "Point", "coordinates": [ -38.207671269999935, -9.415645309999945 ] } },
{ "type": "Feature", "properties": { "NOME": "Salto do Rio Verdinho", "propriet": "100% para Companhia Brasileira de Alumínio (PIE)", "RIO": "Rio Verde", "potencia": 93000.0, "ini_oper": "2010-07-06T00:00:00", "ceg": "UHE.PH.GO.028760-1.01", "created_us": "BERNARDO.OLIVEIRA", "created_da": "2024-12-13T00:00:00", "last_edite": "BERNARDO.OLIVEIRA", "last_edi_1": "2024-12-13T00:00:00" }, "geometry": { "type": "Point", "coordinates": [ -50.753944829999966, -19.142700199999979 ] } },
{ "type": "Feature", "properties": { "NOME": "Engenheiro José Luiz Muller de Godoy Pereira (Antiga Foz do Rio Claro)", "propriet": "100% para Foz do Rio Claro Energia S.A. (PIE)", "RIO": "Rio Claro", "potencia": 68400.0, "ini_oper": "2010-08-05T00:00:00", "ceg": "UHE.PH.GO.029455-1.01", "created_us": "BERNARDO.OLIVEIRA", "created_da": "2024-12-13T00:00:00", "last_edite": "BERNARDO.OLIVEIRA", "last_edi_1": "2024-12-13T00:00:00" }, "geometry": { "type": "Point", "coordinates": [ -50.645698319999951, -19.117111529999931 ] } },
{ "type": "Feature", "properties": { "NOME": "Risoleta Neves (Antiga Candonga)", "propriet": "50% para VALE S.A. (PIE) 50% para Aliança Geração de Energia S.A. (PIE)", "RIO": "Rio Doce", "potencia": 140100.0, "ini_oper": "2004-09-07T00:00:00", "ceg": "UHE.PH.MG.000641-6.01", "created_us": "BERNARDO.OLIVEIRA", "created_da": "2024-12-13T00:00:00", "last_edite": "BERNARDO.OLIVEIRA", "last_edi_1": "2024-12-13T00:00:00" }, "geometry": { "type": "Point", "coordinates": [ -42.854999379999981, -20.207422189999932 ] } },
{ "type": "Feature", "properties": { "NOME": "Amador Aguiar I (Antiga Capim Branco I)", "propriet": "87.3684% para Aliança Geração de Energia S.A. (PIE) 12.6316% para L.D.O.S.P.E. GERAÇÃO DE ENERGIA E PARTICIPAÇÕES LTDA. (APE)", "RIO": "Rio Araguari", "potencia": 240000.0, "ini_oper": "2006-02-21T00:00:00", "ceg": "UHE.PH.MG.027483-6.01", "created_us": "BERNARDO.OLIVEIRA", "created_da": "2024-12-13T00:00:00", "last_edite": "BERNARDO.OLIVEIRA", "last_edi_1": "2024-12-13T00:00:00" }, "geometry": { "type": "Point", "coordinates": [ -48.148598629999981, -18.789137319999952 ] } },
{ "type": "Feature", "properties": { "NOME": "Amador Aguiar II (Antiga Capim Branco II)", "propriet": "87.3684% para Aliança Geração de Energia S.A. (PIE) 12.6316% para L.D.O.S.P.E. GERAÇÃO DE ENERGIA E PARTICIPAÇÕES LTDA. (APE)", "RIO": "Rio Araguari", "potencia": 210000.0, "ini_oper": "2007-03-09T00:00:00", "ceg": "UHE.PH.MG.027484-4.01", "created_us": "BERNARDO.OLIVEIRA", "created_da": "2024-12-13T00:00:00", "last_edite": "BERNARDO.OLIVEIRA", "last_edi_1": "2024-12-13T00:00:00" }, "geometry": { "type": "Point", "coordinates": [ -48.43677, -18.65915554999998 ] } },
{ "type": "Feature", "properties": { "NOME": "Assis Chateaubriand(Antiga Salto Mimoso)", "propriet": "100% para PANTANAL ENERGÉTICA LTDA (PIE)", "RIO": "Rio Pardo", "potencia": 29500.0, "ini_oper": "1969-10-01T00:00:00", "ceg": "UHE.PH.MS.028012-7.01", "created_us": "BERNARDO.OLIVEIRA", "created_da": "2024-12-13T00:00:00", "last_edite": "BERNARDO.OLIVEIRA", "last_edi_1": "2024-12-13T00:00:00" }, "geometry": { "type": "Point", "coordinates": [ -53.567561109999986, -20.675275 ] } },
{ "type": "Feature", "properties": { "NOME": "Governador José Richa (Salto Caxias)", "propriet": "100% para Copel Geração E Transmissão S.A. (SP)", "RIO": "Rio Iguaçu", "potencia": 1240000.0, "ini_oper": "1999-02-18T00:00:00", "ceg": "UHE.PH.PR.002591-7.01", "created_us": "BERNARDO.OLIVEIRA", "created_da": "2024-12-13T00:00:00", "last_edite": "BERNARDO.OLIVEIRA", "last_edi_1": "2024-12-13T00:00:00" }, "geometry": { "type": "Point", "coordinates": [ -53.498055029999932, -25.543054979999965 ] } },
{ "type": "Feature", "properties": { "NOME": "Salto Santiago", "propriet": "100% para ENGIE Brasil Energia S.A. (PIE)", "RIO": "Rio Iguaçu", "potencia": 1420000.0, "ini_oper": "1980-01-01T00:00:00", "ceg": "UHE.PH.PR.002672-7.01", "created_us": "BERNARDO.OLIVEIRA", "created_da": "2024-12-13T00:00:00", "last_edite": "BERNARDO.OLIVEIRA", "last_edi_1": "2024-12-13T00:00:00" }, "geometry": { "type": "Point", "coordinates": [ -52.614525479999941, -25.628763309999954 ] } },
{ "type": "Feature", "properties": { "NOME": "Governador Ney Aminthas de Barros Braga (Segredo)", "propriet": "100% para Copel Geração E Transmissão S.A. (SP)", "RIO": "Rio Iguaçu", "potencia": 1260000.0, "ini_oper": "1992-09-29T00:00:00", "ceg": "UHE.PH.PR.002715-4.01", "created_us": "BERNARDO.OLIVEIRA", "created_da": "2024-12-13T00:00:00", "last_edite": "BERNARDO.OLIVEIRA", "last_edi_1": "2024-12-13T00:00:00" }, "geometry": { "type": "Point", "coordinates": [ -52.112310459999946, -25.79045353999993 ] } },
{ "type": "Feature", "properties": { "NOME": "Governador Jayme Canet Junior (Antiga MAUÁ)", "propriet": "51% para Copel Geração E Transmissão S.A. (PIE) 49% para Companhia De Geração e Transmissão de Energia Elétrica do Sul do Brasil - ELETROBRAS CGT ELETROSUL (PIE)", "RIO": "Rio Tibagi", "potencia": 352100.0, "ini_oper": "2012-11-23T00:00:00", "ceg": "UHE.PH.PR.029598-1.01", "created_us": "BERNARDO.OLIVEIRA", "created_da": "2024-12-13T00:00:00", "last_edite": "BERNARDO.OLIVEIRA", "last_edi_1": "2024-12-13T00:00:00" }, "geometry": { "type": "Point", "coordinates": [ -50.70715698999993, -24.062115839999933 ] } },
{ "type": "Feature", "properties": { "NOME": "Bariri (Álvaro de Souza Lima)", "propriet": "100% para AES Brasil Operações S.A. (PIE)", "RIO": "Rio Tietê", "potencia": 144000.0, "ini_oper": "1969-12-26T00:00:00", "ceg": "UHE.PH.SP.000203-8.01", "created_us": "BERNARDO.OLIVEIRA", "created_da": "2024-12-13T00:00:00", "last_edite": "BERNARDO.OLIVEIRA", "last_edi_1": "2024-12-13T00:00:00" }, "geometry": { "type": "Point", "coordinates": [ -48.7525, -22.153333 ] } },
{ "type": "Feature", "properties": { "NOME": "Salto Grande (Lucas Nogueira Garcez)", "propriet": "100% para Rio Paranapanema Energia S.A. (PIE)", "RIO": "Rio Paranapanema", "potencia": 73800.0, "ini_oper": "1958-05-31T00:00:00", "ceg": "UHE.PH.SP.002648-4.01", "created_us": "BERNARDO.OLIVEIRA", "created_da": "2024-12-13T00:00:00", "last_edite": "BERNARDO.OLIVEIRA", "last_edi_1": "2024-12-13T00:00:00" }, "geometry": { "type": "Point", "coordinates": [ -49.997986309999931, -22.903899359999969 ] } },
{ "type": "Feature", "properties": { "NOME": "Funil (Chesf)", "propriet": "100% para Companhia Hidro Elétrica do São Francisco (PIE)", "RIO": "Rio das Contas", "potencia": 30000.0, "ini_oper": "1970-02-13T00:00:00", "ceg": "UHE.PH.BA.027046-6.1", "created_us": "BERNARDO.OLIVEIRA", "created_da": "2024-12-13T00:00:00", "last_edite": "BERNARDO.OLIVEIRA", "last_edi_1": "2024-12-13T00:00:00" }, "geometry": { "type": "Point", "coordinates": [ -39.462047, -14.229056 ] } },
{ "type": "Feature", "properties": { "NOME": "Santa Anna", "propriet": "100% para FRANCISCO LINDNER INDÚSTRIA E COMÉRCIO LTDA (REG)", "RIO": "Rio do Peixe", "potencia": 1350.0, "ini_oper": "1959-06-30T00:00:00", "ceg": "CGH.PH.SC.027620-0.2", "created_us": "BERNARDO.OLIVEIRA", "created_da": "2024-12-13T00:00:00", "last_edite": "BERNARDO.OLIVEIRA", "last_edi_1": "2024-12-13T00:00:00" }, "geometry": { "type": "Point", "coordinates": [ -51.44435, -27.132606 ] } },
{ "type": "Feature", "properties": { "NOME": "São Francisco", "propriet": "100% para FRANCISCO LINDNER INDÚSTRIA E COMÉRCIO LTDA (REG)", "RIO": "Rio do Peixe", "potencia": 460.0, "ini_oper": "1953-10-31T00:00:00", "ceg": "CGH.PH.SC.032561-9.2", "created_us": "BERNARDO.OLIVEIRA", "created_da": "2024-12-13T00:00:00", "last_edite": "BERNARDO.OLIVEIRA", "last_edi_1": "2024-12-13T00:00:00" }, "geometry": { "type": "Point", "coordinates": [ -51.44461, -27.132974 ] } },
{ "type": "Feature", "properties": { "NOME": "Juruena", "propriet": "100% para UHE JURUENA LTDA (PIE)", "RIO": "Rio Juruena", "potencia": 50000.0, "ini_oper": null, "ceg": "UHE.PH.MT.040733-0.1", "created_us": "BERNARDO.OLIVEIRA", "created_da": "2024-12-13T00:00:00", "last_edite": "BERNARDO.OLIVEIRA", "last_edi_1": "2024-12-13T00:00:00" }, "geometry": { "type": "Point", "coordinates": [ -59.0075, -13.401389 ] } },
{ "type": "Feature", "properties": { "NOME": "Santa Clara", "propriet": "100% para CENTRAIS ELÉTRICAS DO RIO JORDÃO S.A. (PIE)", "RIO": "Rio Jordão", "potencia": 120200.0, "ini_oper": "2005-07-31T00:00:00", "ceg": "UHE.PH.PR.028361-4.01", "created_us": "BERNARDO.OLIVEIRA", "created_da": "2024-12-13T00:00:00", "last_edite": "BERNARDO.OLIVEIRA", "last_edi_1": "2024-12-13T00:00:00" }, "geometry": { "type": "Point", "coordinates": [ -51.956881589999966, -25.645618959999979 ] } }
]
}
